{
	"data/MX/Mich.": {
		"id": "data/MX/Mich.",
		"key": "Mich.",
		"name": "Michoacán",
		"lang": "es",
		"zip": "5[89]|6[01]",
		"zipex": "58000,61999",
		"isoid": "MIC"
	},
	"data/MX/Nay.": {
		"id": "data/MX/Nay.",
		"key": "Nay.",
		"name": "Nayarit",
		"lang": "es",
		"zip": "63",
		"zipex": "63000,63999",
		"isoid": "NAY"
	},
	"data/MX/Yuc.": {
		"id": "data/MX/Yuc.",
		"key": "Yuc.",
		"name": "Yucatán",
		"lang": "es",
		"zip": "97",
		"zipex": "97000,97999",
		"isoid": "YUC"
	},
	"data/MX/Tab.": {
		"id": "data/MX/Tab.",
		"key": "Tab.",
		"name": "Tabasco",
		"lang": "es",
		"zip": "86",
		"zipex": "86000,86999",
		"isoid": "TAB"
	},
	"data/MX/Pue.": {
		"id": "data/MX/Pue.",
		"key": "Pue.",
		"name": "Puebla",
		"lang": "es",
		"zip": "7[2-5]",
		"zipex": "72000,75999",
		"isoid": "PUE"
	},
	"data/MX/CDMX": {
		"id": "data/MX/CDMX",
		"key": "CDMX",
		"name": "Ciudad de México",
		"lang": "es",
		"zip": "0|1[0-6]",
		"zipex": "00000,16999",
		"isoid": "CMX"
	},
	"data/MX/Jal.": {
		"id": "data/MX/Jal.",
		"key": "Jal.",
		"name": "Jalisco",
		"lang": "es",
		"zip": "4[4-9]",
		"zipex": "44000,49999",
		"isoid": "JAL"
	},
	"data/MX": {
		"id": "data/MX",
		"key": "MX",
		"name": "MEXICO",
		"lang": "es",
		"languages": "es",
		"fmt": "%N%n%O%n%A%n%D%n%Z %C, %S",
		"require": "ACSZ",
		"upper": "CSZ",
		"zip": "\\d{5}",
		"zipex": "02860,77520,06082",
		"posturl": "https://www.correosdemexico.gob.mx/SSLServicios/ConsultaCP/Descarga.aspx",
		"state_name_type": "state",
		"sublocality_name_type": "neighborhood",
		"sub_keys": "Ags.~B.C.~B.C.S.~Camp.~Chis.~Chih.~CDMX~Coah.~Col.~Dgo.~Méx.~Gto.~Gro.~Hgo.~Jal.~Mich.~Mor.~Nay.~N.L.~Oax.~Pue.~Qro.~Q.R.~S.L.P.~Sin.~Son.~Tab.~Tamps.~Tlax.~Ver.~Yuc.~Zac.",
		"sub_names": "Aguascalientes~Baja California~Baja California Sur~Campeche~Chiapas~Chihuahua~Ciudad de México~Coahuila de Zaragoza~Colima~Durango~Estado de México~Guanajuato~Guerrero~Hidalgo~Jalisco~Michoacán~Morelos~Nayarit~Nuevo León~Oaxaca~Puebla~Querétaro~Quintana Roo~San Luis Potosí~Sinaloa~Sonora~Tabasco~Tamaulipas~Tlaxcala~Veracruz~Yucatán~Zacatecas",
		"sub_zips": "20~2[12]~23~24~29|30~3[1-3]~0|1[0-6]~2[5-7]~28~3[45]~5[0-7]~3[6-8]~39|4[01]~4[23]~4[4-9]~5[89]|6[01]~62~63~6[4-7]~6[89]|7[01]~7[2-5]~76~77~7[89]~8[0-2]~8[3-5]~86~8[7-9]~90~9[1-6]~97~9[89]",
		"sub_zipexs": "20000,20999~21000,22999~23000,23999~24000,24999~29000,30999~31000,33999~00000,16999~25000,27999~28000,28999~34000,35999~50000,57999~36000,38999~39000,41999~42000,43999~44000,49999~58000,61999~62000,62999~63000,63999~64000,67999~68000,71999~72000,75999~76000,76999~77000,77999~78000,79999~80000,82999~83000,85999~86000,86999~87000,89999~90000,90999~91000,96999~97000,97999~98000,99999",
		"sub_isoids": "AGU~BCN~BCS~CAM~CHP~CHH~CMX~COA~COL~DUR~MEX~GUA~GRO~HID~JAL~MIC~MOR~NAY~NLE~OAX~PUE~QUE~ROO~SLP~SIN~SON~TAB~TAM~TLA~VER~YUC~ZAC"
	},
	"data/MX/Chih.": {
		"id": "data/MX/Chih.",
		"key": "Chih.",
		"name": "Chihuahua",
		"lang": "es",
		"zip": "3[1-3]",
		"zipex": "31000,33999",
		"isoid": "CHH"
	},
	"data/MX/Hgo.": {
		"id": "data/MX/Hgo.",
		"key": "Hgo.",
		"name": "Hidalgo",
		"lang": "es",
		"zip": "4[23]",
		"zipex": "42000,43999",
		"isoid": "HID"
	},
	"data/MX/Méx.": {
		"id": "data/MX/Méx.",
		"key": "Méx.",
		"name": "Estado de México",
		"lang": "es",
		"zip": "5[0-7]",
		"zipex": "50000,57999",
		"isoid": "MEX"
	},
	"data/MX/Gto.": {
		"id": "data/MX/Gto.",
		"key": "Gto.",
		"name": "Guanajuato",
		"lang": "es",
		"zip": "3[6-8]",
		"zipex": "36000,38999",
		"isoid": "GUA"
	},
	"data/MX/Zac.": {
		"id": "data/MX/Zac.",
		"key": "Zac.",
		"name": "Zacatecas",
		"lang": "es",
		"zip": "9[89]",
		"zipex": "98000,99999",
		"isoid": "ZAC"
	},
	"data/MX/Mor.": {
		"id": "data/MX/Mor.",
		"key": "Mor.",
		"name": "Morelos",
		"lang": "es",
		"zip": "62",
		"zipex": "62000,62999",
		"isoid": "MOR"
	},
	"data/MX/Chis.": {
		"id": "data/MX/Chis.",
		"key": "Chis.",
		"name": "Chiapas",
		"lang": "es",
		"zip": "29|30",
		"zipex": "29000,30999",
		"isoid": "CHP"
	},
	"data/MX/B.C.S.": {
		"id": "data/MX/B.C.S.",
		"key": "B.C.S.",
		"name": "Baja California Sur",
		"lang": "es",
		"zip": "23",
		"zipex": "23000,23999",
		"isoid": "BCS"
	},
	"data/MX/S.L.P.": {
		"id": "data/MX/S.L.P.",
		"key": "S.L.P.",
		"name": "San Luis Potosí",
		"lang": "es",
		"zip": "7[89]",
		"zipex": "78000,79999",
		"isoid": "SLP"
	},
	"data/MX/Qro.": {
		"id": "data/MX/Qro.",
		"key": "Qro.",
		"name": "Querétaro",
		"lang": "es",
		"zip": "76",
		"zipex": "76000,76999",
		"isoid": "QUE"
	},
	"data/MX/Sin.": {
		"id": "data/MX/Sin.",
		"key": "Sin.",
		"name": "Sinaloa",
		"lang": "es",
		"zip": "8[0-2]",
		"zipex": "80000,82999",
		"isoid": "SIN"
	},
	"data/MX/Ags.": {
		"id": "data/MX/Ags.",
		"key": "Ags.",
		"name": "Aguascalientes",
		"lang": "es",
		"zip": "20",
		"zipex": "20000,20999",
		"isoid": "AGU"
	},
	"data/MX/Oax.": {
		"id": "data/MX/Oax.",
		"key": "Oax.",
		"name": "Oaxaca",
		"lang": "es",
		"zip": "6[89]|7[01]",
		"zipex": "68000,71999",
		"isoid": "OAX"
	},
	"data/MX/Tamps.": {
		"id": "data/MX/Tamps.",
		"key": "Tamps.",
		"name": "Tamaulipas",
		"lang": "es",
		"zip": "8[7-9]",
		"zipex": "87000,89999",
		"isoid": "TAM"
	},
	"data/MX/Camp.": {
		"id": "data/MX/Camp.",
		"key": "Camp.",
		"name": "Campeche",
		"lang": "es",
		"zip": "24",
		"zipex": "24000,24999",
		"isoid": "CAM"
	},
	"data/MX/Q.R.": {
		"id": "data/MX/Q.R.",
		"key": "Q.R.",
		"name": "Quintana Roo",
		"lang": "es",
		"zip": "77",
		"zipex": "77000,77999",
		"isoid": "ROO"
	},
	"data/MX/Tlax.": {
		"id": "data/MX/Tlax.",
		"key": "Tlax.",
		"name": "Tlaxcala",
		"lang": "es",
		"zip": "90",
		"zipex": "90000,90999",
		"isoid": "TLA"
	},
	"data/MX/B.C.": {
		"id": "data/MX/B.C.",
		"key": "B.C.",
		"name": "Baja California",
		"lang": "es",
		"zip": "2[12]",
		"zipex": "21000,22999",
		"isoid": "BCN"
	},
	"data/MX/N.L.": {
		"id": "data/MX/N.L.",
		"key": "N.L.",
		"name": "Nuevo León",
		"lang": "es",
		"zip": "6[4-7]",
		"zipex": "64000,67999",
		"isoid": "NLE"
	},
	"data/MX/Ver.": {
		"id": "data/MX/Ver.",
		"key": "Ver.",
		"name": "Veracruz",
		"lang": "es",
		"zip": "9[1-6]",
		"zipex": "91000,96999",
		"isoid": "VER"
	},
	"data/MX/Gro.": {
		"id": "data/MX/Gro.",
		"key": "Gro.",
		"name": "Guerrero",
		"lang": "es",
		"zip": "39|4[01]",
		"zipex": "39000,41999",
		"isoid": "GRO"
	},
	"data/MX/Dgo.": {
		"id": "data/MX/Dgo.",
		"key": "Dgo.",
		"name": "Durango",
		"lang": "es",
		"zip": "3[45]",
		"zipex": "34000,35999",
		"isoid": "DUR"
	},
	"data/MX/Coah.": {
		"id": "data/MX/Coah.",
		"key": "Coah.",
		"name": "Coahuila de Zaragoza",
		"lang": "es",
		"zip": "2[5-7]",
		"zipex": "25000,27999",
		"isoid": "COA"
	},
	"data/MX/Col.": {
		"id": "data/MX/Col.",
		"key": "Col.",
		"name": "Colima",
		"lang": "es",
		"zip": "28",
		"zipex": "28000,28999",
		"isoid": "COL"
	},
	"data/MX/Son.": {
		"id": "data/MX/Son.",
		"key": "Son.",
		"name": "Sonora",
		"lang": "es",
		"zip": "8[3-5]",
		"zipex": "83000,85999",
		"isoid": "SON"
	}
}