{
	"data/TW": {
		"id": "data/TW",
		"key": "TW",
		"name": "TAIWAN",
		"lang": "zh-Hant",
		"languages": "zh-Hant",
		"fmt": "%Z%n%S%C%n%A%n%O%n%N",
		"lfmt": "%N%n%O%n%A%n%C, %S %Z",
		"require": "ACSZ",
		"zip": "\\d{3}(?:\\d{2,3})?",
		"zipex": "104,106,10603,40867",
		"posturl": "http://www.post.gov.tw/post/internet/f_searchzone/index.jsp?ID=190102",
		"state_name_type": "county",
		"sub_keys": "台中市~台北市~台東縣~台南市~宜蘭縣~花蓮縣~金門縣~南投縣~屏東縣~苗栗縣~桃園市~高雄市~基隆市~連江縣~雲林縣~新北市~新竹市~新竹縣~嘉義市~嘉義縣~彰化縣~澎湖縣",
		"sub_lnames": "Taichung City~Taipei City~Taitung County~Tainan City~Yilan County~Hualien County~Kinmen County~Nantou County~Pingtung County~Miaoli County~Taoyuan City~Kaohsiung City~Keelung City~Lienchiang County~Yunlin County~New Taipei City~Hsinchu City~Hsinchu County~Chiayi City~Chiayi County~Changhua County~Penghu County",
		"sub_zips": "4[0-3]~1[01]~9[56]~7[0-4]~2[67]~9[78]~89~5[45]~9[0-4]~3[56]~3[23]~8[02-5]|81[1-579]~20[0-6]~209|21[012]~6[3-5]~20[78]|2[2345]~300~30[2-8]|31~600~60[1-9]|6[12]~5[0123]~88",
		"sub_zipexs": "400,408,411,439~100,119~950,966~700,745~260,272~970,983~890,896~540,558~900,947~350,369~320,338~800,815,817,852~200,206~209,212~630,655~207,208,220,253~~302,315~~602,625~500,530~880,885",
		"sub_isoids": "TXG~TPE~TTT~TNN~ILA~HUA~~NAN~PIF~MIA~TAO~KHH~KEE~~YUN~NWT~HSZ~HSQ~CYI~CYQ~CHA~PEN",
		"sub_mores": "true~true~true~true~true~true~true~true~true~true~true~true~true~true~true~true~true~true~true~true~true~true"
	},
	"data/TW/南投縣": {
		"id": "data/TW/南投縣",
		"key": "南投縣",
		"lang": "zh-Hant",
		"lname": "Nantou County",
		"zip": "5[45]",
		"zipex": "540,558",
		"isoid": "NAN",
		"sub_keys": "中寮鄉~仁愛鄉~水里鄉~名間鄉~竹山鎮~信義鄉~南投市~埔里鎮~草屯鎮~國姓鄉~魚池鄉~鹿谷鄉~集集鎮",
		"sub_lnames": "Zhongliao Township~Ren'ai Township~Shuili Township~Mingjian Township~Zhushan Township~Xinyi Township~Nantou City~Puli Township~Caotun Township~Guoxing Township~Yuchi Township~Lugu Township~Jiji Township",
		"sub_zips": "541~546~553~551~557~556~540~545~542~544~555~558~552"
	},
	"data/TW/南投縣/中寮鄉": {
		"id": "data/TW/南投縣/中寮鄉",
		"key": "中寮鄉",
		"lang": "zh-Hant",
		"lname": "Zhongliao Township",
		"zip": "541"
	},
	"data/TW/南投縣/仁愛鄉": {
		"id": "data/TW/南投縣/仁愛鄉",
		"key": "仁愛鄉",
		"lang": "zh-Hant",
		"lname": "Ren'ai Township",
		"zip": "546"
	},
	"data/TW/南投縣/信義鄉": {
		"id": "data/TW/南投縣/信義鄉",
		"key": "信義鄉",
		"lang": "zh-Hant",
		"lname": "Xinyi Township",
		"zip": "556"
	},
	"data/TW/南投縣/南投市": {
		"id": "data/TW/南投縣/南投市",
		"key": "南投市",
		"lang": "zh-Hant",
		"lname": "Nantou City",
		"zip": "540"
	},
	"data/TW/南投縣/名間鄉": {
		"id": "data/TW/南投縣/名間鄉",
		"key": "名間鄉",
		"lang": "zh-Hant",
		"lname": "Mingjian Township",
		"zip": "551"
	},
	"data/TW/南投縣/國姓鄉": {
		"id": "data/TW/南投縣/國姓鄉",
		"key": "國姓鄉",
		"lang": "zh-Hant",
		"lname": "Guoxing Township",
		"zip": "544"
	},
	"data/TW/南投縣/埔里鎮": {
		"id": "data/TW/南投縣/埔里鎮",
		"key": "埔里鎮",
		"lang": "zh-Hant",
		"lname": "Puli Township",
		"zip": "545"
	},
	"data/TW/南投縣/水里鄉": {
		"id": "data/TW/南投縣/水里鄉",
		"key": "水里鄉",
		"lang": "zh-Hant",
		"lname": "Shuili Township",
		"zip": "553"
	},
	"data/TW/南投縣/竹山鎮": {
		"id": "data/TW/南投縣/竹山鎮",
		"key": "竹山鎮",
		"lang": "zh-Hant",
		"lname": "Zhushan Township",
		"zip": "557"
	},
	"data/TW/南投縣/草屯鎮": {
		"id": "data/TW/南投縣/草屯鎮",
		"key": "草屯鎮",
		"lang": "zh-Hant",
		"lname": "Caotun Township",
		"zip": "542"
	},
	"data/TW/南投縣/集集鎮": {
		"id": "data/TW/南投縣/集集鎮",
		"key": "集集鎮",
		"lang": "zh-Hant",
		"lname": "Jiji Township",
		"zip": "552"
	},
	"data/TW/南投縣/魚池鄉": {
		"id": "data/TW/南投縣/魚池鄉",
		"key": "魚池鄉",
		"lang": "zh-Hant",
		"lname": "Yuchi Township",
		"zip": "555"
	},
	"data/TW/南投縣/鹿谷鄉": {
		"id": "data/TW/南投縣/鹿谷鄉",
		"key": "鹿谷鄉",
		"lang": "zh-Hant",
		"lname": "Lugu Township",
		"zip": "558"
	},
	"data/TW/台中市": {
		"id": "data/TW/台中市",
		"key": "台中市",
		"lang": "zh-Hant",
		"lname": "Taichung City",
		"zip": "4[0-3]",
		"zipex": "400,408,411,439",
		"isoid": "TXG",
		"sub_keys": "大甲區~大安區~大肚區~大里區~大雅區~中區~太平區~北屯區~北區~外埔區~石岡區~后里區~西屯區~西區~沙鹿區~和平區~東區~東勢區~南屯區~南區~烏日區~神岡區~梧棲區~清水區~新社區~潭子區~龍井區~豐原區~霧峰區",
		"sub_lnames": "Dajia District~Da'an District~Dadu District~Dali District~Daya District~Central District~Taiping District~Beitun District~North District~Waipu District~Shigang District~Houli District~Xitun District~West District~Shalu District~Heping District~East District~Dongshi District~Nantun District~South District~Wuri District~Shengang District~Wuqi District~Qingshui District~Xinshe District~Tanzi District~Longjing District~Fengyuan District~Wufeng District",
		"sub_zips": "437~439~432~412~428~400~411~406~404~438~422~421~407~403~433~424~401~423~408~402~414~429~435~436~426~427~434~420~413"
	},
	"data/TW/台中市/中區": {
		"id": "data/TW/台中市/中區",
		"key": "中區",
		"lang": "zh-Hant",
		"lname": "Central District",
		"zip": "400"
	},
	"data/TW/台中市/北區": {
		"id": "data/TW/台中市/北區",
		"key": "北區",
		"lang": "zh-Hant",
		"lname": "North District",
		"zip": "404"
	},
	"data/TW/台中市/北屯區": {
		"id": "data/TW/台中市/北屯區",
		"key": "北屯區",
		"lang": "zh-Hant",
		"lname": "Beitun District",
		"zip": "406"
	},
	"data/TW/台中市/南區": {
		"id": "data/TW/台中市/南區",
		"key": "南區",
		"lang": "zh-Hant",
		"lname": "South District",
		"zip": "402"
	},
	"data/TW/台中市/南屯區": {
		"id": "data/TW/台中市/南屯區",
		"key": "南屯區",
		"lang": "zh-Hant",
		"lname": "Nantun District",
		"zip": "408"
	},
	"data/TW/台中市/后里區": {
		"id": "data/TW/台中市/后里區",
		"key": "后里區",
		"lang": "zh-Hant",
		"lname": "Houli District",
		"zip": "421"
	},
	"data/TW/台中市/和平區": {
		"id": "data/TW/台中市/和平區",
		"key": "和平區",
		"lang": "zh-Hant",
		"lname": "Heping District",
		"zip": "424"
	},
	"data/TW/台中市/外埔區": {
		"id": "data/TW/台中市/外埔區",
		"key": "外埔區",
		"lang": "zh-Hant",
		"lname": "Waipu District",
		"zip": "438"
	},
	"data/TW/台中市/大安區": {
		"id": "data/TW/台中市/大安區",
		"key": "大安區",
		"lang": "zh-Hant",
		"lname": "Da'an District",
		"zip": "439"
	},
	"data/TW/台中市/大甲區": {
		"id": "data/TW/台中市/大甲區",
		"key": "大甲區",
		"lang": "zh-Hant",
		"lname": "Dajia District",
		"zip": "437"
	},
	"data/TW/台中市/大肚區": {
		"id": "data/TW/台中市/大肚區",
		"key": "大肚區",
		"lang": "zh-Hant",
		"lname": "Dadu District",
		"zip": "432"
	},
	"data/TW/台中市/大里區": {
		"id": "data/TW/台中市/大里區",
		"key": "大里區",
		"lang": "zh-Hant",
		"lname": "Dali District",
		"zip": "412"
	},
	"data/TW/台中市/大雅區": {
		"id": "data/TW/台中市/大雅區",
		"key": "大雅區",
		"lang": "zh-Hant",
		"lname": "Daya District",
		"zip": "428"
	},
	"data/TW/台中市/太平區": {
		"id": "data/TW/台中市/太平區",
		"key": "太平區",
		"lang": "zh-Hant",
		"lname": "Taiping District",
		"zip": "411"
	},
	"data/TW/台中市/新社區": {
		"id": "data/TW/台中市/新社區",
		"key": "新社區",
		"lang": "zh-Hant",
		"lname": "Xinshe District",
		"zip": "426"
	},
	"data/TW/台中市/東勢區": {
		"id": "data/TW/台中市/東勢區",
		"key": "東勢區",
		"lang": "zh-Hant",
		"lname": "Dongshi District",
		"zip": "423"
	},
	"data/TW/台中市/東區": {
		"id": "data/TW/台中市/東區",
		"key": "東區",
		"lang": "zh-Hant",
		"lname": "East District",
		"zip": "401"
	},
	"data/TW/台中市/梧棲區": {
		"id": "data/TW/台中市/梧棲區",
		"key": "梧棲區",
		"lang": "zh-Hant",
		"lname": "Wuqi District",
		"zip": "435"
	},
	"data/TW/台中市/沙鹿區": {
		"id": "data/TW/台中市/沙鹿區",
		"key": "沙鹿區",
		"lang": "zh-Hant",
		"lname": "Shalu District",
		"zip": "433"
	},
	"data/TW/台中市/清水區": {
		"id": "data/TW/台中市/清水區",
		"key": "清水區",
		"lang": "zh-Hant",
		"lname": "Qingshui District",
		"zip": "436"
	},
	"data/TW/台中市/潭子區": {
		"id": "data/TW/台中市/潭子區",
		"key": "潭子區",
		"lang": "zh-Hant",
		"lname": "Tanzi District",
		"zip": "427"
	},
	"data/TW/台中市/烏日區": {
		"id": "data/TW/台中市/烏日區",
		"key": "烏日區",
		"lang": "zh-Hant",
		"lname": "Wuri District",
		"zip": "414"
	},
	"data/TW/台中市/石岡區": {
		"id": "data/TW/台中市/石岡區",
		"key": "石岡區",
		"lang": "zh-Hant",
		"lname": "Shigang District",
		"zip": "422"
	},
	"data/TW/台中市/神岡區": {
		"id": "data/TW/台中市/神岡區",
		"key": "神岡區",
		"lang": "zh-Hant",
		"lname": "Shengang District",
		"zip": "429"
	},
	"data/TW/台中市/西區": {
		"id": "data/TW/台中市/西區",
		"key": "西區",
		"lang": "zh-Hant",
		"lname": "West District",
		"zip": "403"
	},
	"data/TW/台中市/西屯區": {
		"id": "data/TW/台中市/西屯區",
		"key": "西屯區",
		"lang": "zh-Hant",
		"lname": "Xitun District",
		"zip": "407"
	},
	"data/TW/台中市/豐原區": {
		"id": "data/TW/台中市/豐原區",
		"key": "豐原區",
		"lang": "zh-Hant",
		"lname": "Fengyuan District",
		"zip": "420"
	},
	"data/TW/台中市/霧峰區": {
		"id": "data/TW/台中市/霧峰區",
		"key": "霧峰區",
		"lang": "zh-Hant",
		"lname": "Wufeng District",
		"zip": "413"
	},
	"data/TW/台中市/龍井區": {
		"id": "data/TW/台中市/龍井區",
		"key": "龍井區",
		"lang": "zh-Hant",
		"lname": "Longjing District",
		"zip": "434"
	},
	"data/TW/台北市": {
		"id": "data/TW/台北市",
		"key": "台北市",
		"lang": "zh-Hant",
		"lname": "Taipei City",
		"zip": "1[01]",
		"zipex": "100,119",
		"isoid": "TPE",
		"sub_keys": "士林區~大同區~大安區~中山區~中正區~內湖區~文山區~北投區~松山區~信義區~南港區~萬華區",
		"sub_lnames": "Shilin District~Datong District~Da'an District~Zhongshan District~Zhongzheng District~Neihu District~Wenshan District~Beitou District~Songshan District~Xinyi District~Nangang District~Wanhua District",
		"sub_zips": "111~103~106~104~100~114~116~112~105~110~115~108"
	},
	"data/TW/台北市/中山區": {
		"id": "data/TW/台北市/中山區",
		"key": "中山區",
		"lang": "zh-Hant",
		"lname": "Zhongshan District",
		"zip": "104"
	},
	"data/TW/台北市/中正區": {
		"id": "data/TW/台北市/中正區",
		"key": "中正區",
		"lang": "zh-Hant",
		"lname": "Zhongzheng District",
		"zip": "100"
	},
	"data/TW/台北市/信義區": {
		"id": "data/TW/台北市/信義區",
		"key": "信義區",
		"lang": "zh-Hant",
		"lname": "Xinyi District",
		"zip": "110"
	},
	"data/TW/台北市/內湖區": {
		"id": "data/TW/台北市/內湖區",
		"key": "內湖區",
		"lang": "zh-Hant",
		"lname": "Neihu District",
		"zip": "114"
	},
	"data/TW/台北市/北投區": {
		"id": "data/TW/台北市/北投區",
		"key": "北投區",
		"lang": "zh-Hant",
		"lname": "Beitou District",
		"zip": "112"
	},
	"data/TW/台北市/南港區": {
		"id": "data/TW/台北市/南港區",
		"key": "南港區",
		"lang": "zh-Hant",
		"lname": "Nangang District",
		"zip": "115"
	},
	"data/TW/台北市/士林區": {
		"id": "data/TW/台北市/士林區",
		"key": "士林區",
		"lang": "zh-Hant",
		"lname": "Shilin District",
		"zip": "111"
	},
	"data/TW/台北市/大同區": {
		"id": "data/TW/台北市/大同區",
		"key": "大同區",
		"lang": "zh-Hant",
		"lname": "Datong District",
		"zip": "103"
	},
	"data/TW/台北市/大安區": {
		"id": "data/TW/台北市/大安區",
		"key": "大安區",
		"lang": "zh-Hant",
		"lname": "Da'an District",
		"zip": "106"
	},
	"data/TW/台北市/文山區": {
		"id": "data/TW/台北市/文山區",
		"key": "文山區",
		"lang": "zh-Hant",
		"lname": "Wenshan District",
		"zip": "116"
	},
	"data/TW/台北市/松山區": {
		"id": "data/TW/台北市/松山區",
		"key": "松山區",
		"lang": "zh-Hant",
		"lname": "Songshan District",
		"zip": "105"
	},
	"data/TW/台北市/萬華區": {
		"id": "data/TW/台北市/萬華區",
		"key": "萬華區",
		"lang": "zh-Hant",
		"lname": "Wanhua District",
		"zip": "108"
	},
	"data/TW/台南市": {
		"id": "data/TW/台南市",
		"key": "台南市",
		"lang": "zh-Hant",
		"lname": "Tainan City",
		"zip": "7[0-4]",
		"zipex": "700,745",
		"isoid": "TNN",
		"sub_keys": "七股區~下營區~大內區~山上區~中西區~仁德區~六甲區~北門區~北區~左鎮區~永康區~玉井區~白河區~安平區~安定區~安南區~西港區~佳里區~官田區~東山區~東區~南化區~南區~後壁區~柳營區~將軍區~麻豆區~善化區~新化區~新市區~新營區~楠西區~學甲區~龍崎區~歸仁區~關廟區~鹽水區",
		"sub_lnames": "Qigu District~Xiaying District~Danei District~Shanshang District~West Central District~Rende District~Liujia District~Beimen District~North District~Zuozhen District~Yongkang District~Yujing District~Baihe District~Anping District~Anding District~Annan District~Xigang District~Jiali District~Guantian District~Dongshan District~East District~Nanhua District~South District~Houbi District~Liuying District~Jiangjun District~Madou District~Shanhua District~Xinhua District~Xinshi District~Xinying District~Nanxi District~Xuejia District~Longqi District~Guiren District~Guanmiao District~Yanshui District",
		"sub_zips": "724~735~742~743~700~717~734~727~704~713~710~714~732~708~745~709~723~722~720~733~701~716~702~731~736~725~721~741~712~744~730~715~726~719~711~718~737"
	},
	"data/TW/台南市/七股區": {
		"id": "data/TW/台南市/七股區",
		"key": "七股區",
		"lang": "zh-Hant",
		"lname": "Qigu District",
		"zip": "724"
	},
	"data/TW/台南市/下營區": {
		"id": "data/TW/台南市/下營區",
		"key": "下營區",
		"lang": "zh-Hant",
		"lname": "Xiaying District",
		"zip": "735"
	},
	"data/TW/台南市/中西區": {
		"id": "data/TW/台南市/中西區",
		"key": "中西區",
		"lang": "zh-Hant",
		"lname": "West Central District",
		"zip": "700"
	},
	"data/TW/台南市/仁德區": {
		"id": "data/TW/台南市/仁德區",
		"key": "仁德區",
		"lang": "zh-Hant",
		"lname": "Rende District",
		"zip": "717"
	},
	"data/TW/台南市/佳里區": {
		"id": "data/TW/台南市/佳里區",
		"key": "佳里區",
		"lang": "zh-Hant",
		"lname": "Jiali District",
		"zip": "722"
	},
	"data/TW/台南市/六甲區": {
		"id": "data/TW/台南市/六甲區",
		"key": "六甲區",
		"lang": "zh-Hant",
		"lname": "Liujia District",
		"zip": "734"
	},
	"data/TW/台南市/北區": {
		"id": "data/TW/台南市/北區",
		"key": "北區",
		"lang": "zh-Hant",
		"lname": "North District",
		"zip": "704"
	},
	"data/TW/台南市/北門區": {
		"id": "data/TW/台南市/北門區",
		"key": "北門區",
		"lang": "zh-Hant",
		"lname": "Beimen District",
		"zip": "727"
	},
	"data/TW/台南市/南化區": {
		"id": "data/TW/台南市/南化區",
		"key": "南化區",
		"lang": "zh-Hant",
		"lname": "Nanhua District",
		"zip": "716"
	},
	"data/TW/台南市/南區": {
		"id": "data/TW/台南市/南區",
		"key": "南區",
		"lang": "zh-Hant",
		"lname": "South District",
		"zip": "702"
	},
	"data/TW/台南市/善化區": {
		"id": "data/TW/台南市/善化區",
		"key": "善化區",
		"lang": "zh-Hant",
		"lname": "Shanhua District",
		"zip": "741"
	},
	"data/TW/台南市/大內區": {
		"id": "data/TW/台南市/大內區",
		"key": "大內區",
		"lang": "zh-Hant",
		"lname": "Danei District",
		"zip": "742"
	},
	"data/TW/台南市/學甲區": {
		"id": "data/TW/台南市/學甲區",
		"key": "學甲區",
		"lang": "zh-Hant",
		"lname": "Xuejia District",
		"zip": "726"
	},
	"data/TW/台南市/安南區": {
		"id": "data/TW/台南市/安南區",
		"key": "安南區",
		"lang": "zh-Hant",
		"lname": "Annan District",
		"zip": "709"
	},
	"data/TW/台南市/安定區": {
		"id": "data/TW/台南市/安定區",
		"key": "安定區",
		"lang": "zh-Hant",
		"lname": "Anding District",
		"zip": "745"
	},
	"data/TW/台南市/安平區": {
		"id": "data/TW/台南市/安平區",
		"key": "安平區",
		"lang": "zh-Hant",
		"lname": "Anping District",
		"zip": "708"
	},
	"data/TW/台南市/官田區": {
		"id": "data/TW/台南市/官田區",
		"key": "官田區",
		"lang": "zh-Hant",
		"lname": "Guantian District",
		"zip": "720"
	},
	"data/TW/台南市/將軍區": {
		"id": "data/TW/台南市/將軍區",
		"key": "將軍區",
		"lang": "zh-Hant",
		"lname": "Jiangjun District",
		"zip": "725"
	},
	"data/TW/台南市/山上區": {
		"id": "data/TW/台南市/山上區",
		"key": "山上區",
		"lang": "zh-Hant",
		"lname": "Shanshang District",
		"zip": "743"
	},
	"data/TW/台南市/左鎮區": {
		"id": "data/TW/台南市/左鎮區",
		"key": "左鎮區",
		"lang": "zh-Hant",
		"lname": "Zuozhen District",
		"zip": "713"
	},
	"data/TW/台南市/後壁區": {
		"id": "data/TW/台南市/後壁區",
		"key": "後壁區",
		"lang": "zh-Hant",
		"lname": "Houbi District",
		"zip": "731"
	},
	"data/TW/台南市/新化區": {
		"id": "data/TW/台南市/新化區",
		"key": "新化區",
		"lang": "zh-Hant",
		"lname": "Xinhua District",
		"zip": "712"
	},
	"data/TW/台南市/新市區": {
		"id": "data/TW/台南市/新市區",
		"key": "新市區",
		"lang": "zh-Hant",
		"lname": "Xinshi District",
		"zip": "744"
	},
	"data/TW/台南市/新營區": {
		"id": "data/TW/台南市/新營區",
		"key": "新營區",
		"lang": "zh-Hant",
		"lname": "Xinying District",
		"zip": "730"
	},
	"data/TW/台南市/東區": {
		"id": "data/TW/台南市/東區",
		"key": "東區",
		"lang": "zh-Hant",
		"lname": "East District",
		"zip": "701"
	},
	"data/TW/台南市/東山區": {
		"id": "data/TW/台南市/東山區",
		"key": "東山區",
		"lang": "zh-Hant",
		"lname": "Dongshan District",
		"zip": "733"
	},
	"data/TW/台南市/柳營區": {
		"id": "data/TW/台南市/柳營區",
		"key": "柳營區",
		"lang": "zh-Hant",
		"lname": "Liuying District",
		"zip": "736"
	},
	"data/TW/台南市/楠西區": {
		"id": "data/TW/台南市/楠西區",
		"key": "楠西區",
		"lang": "zh-Hant",
		"lname": "Nanxi District",
		"zip": "715"
	},
	"data/TW/台南市/歸仁區": {
		"id": "data/TW/台南市/歸仁區",
		"key": "歸仁區",
		"lang": "zh-Hant",
		"lname": "Guiren District",
		"zip": "711"
	},
	"data/TW/台南市/永康區": {
		"id": "data/TW/台南市/永康區",
		"key": "永康區",
		"lang": "zh-Hant",
		"lname": "Yongkang District",
		"zip": "710"
	},
	"data/TW/台南市/玉井區": {
		"id": "data/TW/台南市/玉井區",
		"key": "玉井區",
		"lang": "zh-Hant",
		"lname": "Yujing District",
		"zip": "714"
	},
	"data/TW/台南市/白河區": {
		"id": "data/TW/台南市/白河區",
		"key": "白河區",
		"lang": "zh-Hant",
		"lname": "Baihe District",
		"zip": "732"
	},
	"data/TW/台南市/西港區": {
		"id": "data/TW/台南市/西港區",
		"key": "西港區",
		"lang": "zh-Hant",
		"lname": "Xigang District",
		"zip": "723"
	},
	"data/TW/台南市/關廟區": {
		"id": "data/TW/台南市/關廟區",
		"key": "關廟區",
		"lang": "zh-Hant",
		"lname": "Guanmiao District",
		"zip": "718"
	},
	"data/TW/台南市/鹽水區": {
		"id": "data/TW/台南市/鹽水區",
		"key": "鹽水區",
		"lang": "zh-Hant",
		"lname": "Yanshui District",
		"zip": "737"
	},
	"data/TW/台南市/麻豆區": {
		"id": "data/TW/台南市/麻豆區",
		"key": "麻豆區",
		"lang": "zh-Hant",
		"lname": "Madou District",
		"zip": "721"
	},
	"data/TW/台南市/龍崎區": {
		"id": "data/TW/台南市/龍崎區",
		"key": "龍崎區",
		"lang": "zh-Hant",
		"lname": "Longqi District",
		"zip": "719"
	},
	"data/TW/台東縣": {
		"id": "data/TW/台東縣",
		"key": "台東縣",
		"lang": "zh-Hant",
		"lname": "Taitung County",
		"zip": "9[56]",
		"zipex": "950,966",
		"isoid": "TTT",
		"sub_keys": "大武鄉~太麻里鄉~台東市~成功鎮~池上鄉~卑南鄉~延平鄉~東河鄉~金峰鄉~長濱鄉~海端鄉~鹿野鄉~達仁鄉~綠島鄉~關山鎮~蘭嶼鄉",
		"sub_lnames": "Dawu Township~Taimali Township~Taitung City~Chenggong Township~Chishang Township~Beinan Township~Yanping Township~Donghe Township~Jinfeng Township~Changbin Township~Haiduan Township~Luye Township~Daren Township~Lüdao Township~Guanshan Township~Lanyu Township",
		"sub_zips": "965~963~950~961~958~954~953~959~964~962~957~955~966~951~956~952"
	},
	"data/TW/台東縣/卑南鄉": {
		"id": "data/TW/台東縣/卑南鄉",
		"key": "卑南鄉",
		"lang": "zh-Hant",
		"lname": "Beinan Township",
		"zip": "954"
	},
	"data/TW/台東縣/台東市": {
		"id": "data/TW/台東縣/台東市",
		"key": "台東市",
		"lang": "zh-Hant",
		"lname": "Taitung City",
		"zip": "950"
	},
	"data/TW/台東縣/大武鄉": {
		"id": "data/TW/台東縣/大武鄉",
		"key": "大武鄉",
		"lang": "zh-Hant",
		"lname": "Dawu Township",
		"zip": "965"
	},
	"data/TW/台東縣/太麻里鄉": {
		"id": "data/TW/台東縣/太麻里鄉",
		"key": "太麻里鄉",
		"lang": "zh-Hant",
		"lname": "Taimali Township",
		"zip": "963"
	},
	"data/TW/台東縣/延平鄉": {
		"id": "data/TW/台東縣/延平鄉",
		"key": "延平鄉",
		"lang": "zh-Hant",
		"lname": "Yanping Township",
		"zip": "953"
	},
	"data/TW/台東縣/成功鎮": {
		"id": "data/TW/台東縣/成功鎮",
		"key": "成功鎮",
		"lang": "zh-Hant",
		"lname": "Chenggong Township",
		"zip": "961"
	},
	"data/TW/台東縣/東河鄉": {
		"id": "data/TW/台東縣/東河鄉",
		"key": "東河鄉",
		"lang": "zh-Hant",
		"lname": "Donghe Township",
		"zip": "959"
	},
	"data/TW/台東縣/池上鄉": {
		"id": "data/TW/台東縣/池上鄉",
		"key": "池上鄉",
		"lang": "zh-Hant",
		"lname": "Chishang Township",
		"zip": "958"
	},
	"data/TW/台東縣/海端鄉": {
		"id": "data/TW/台東縣/海端鄉",
		"key": "海端鄉",
		"lang": "zh-Hant",
		"lname": "Haiduan Township",
		"zip": "957"
	},
	"data/TW/台東縣/綠島鄉": {
		"id": "data/TW/台東縣/綠島鄉",
		"key": "綠島鄉",
		"lang": "zh-Hant",
		"lname": "Lüdao Township",
		"zip": "951"
	},
	"data/TW/台東縣/蘭嶼鄉": {
		"id": "data/TW/台東縣/蘭嶼鄉",
		"key": "蘭嶼鄉",
		"lang": "zh-Hant",
		"lname": "Lanyu Township",
		"zip": "952"
	},
	"data/TW/台東縣/達仁鄉": {
		"id": "data/TW/台東縣/達仁鄉",
		"key": "達仁鄉",
		"lang": "zh-Hant",
		"lname": "Daren Township",
		"zip": "966"
	},
	"data/TW/台東縣/金峰鄉": {
		"id": "data/TW/台東縣/金峰鄉",
		"key": "金峰鄉",
		"lang": "zh-Hant",
		"lname": "Jinfeng Township",
		"zip": "964"
	},
	"data/TW/台東縣/長濱鄉": {
		"id": "data/TW/台東縣/長濱鄉",
		"key": "長濱鄉",
		"lang": "zh-Hant",
		"lname": "Changbin Township",
		"zip": "962"
	},
	"data/TW/台東縣/關山鎮": {
		"id": "data/TW/台東縣/關山鎮",
		"key": "關山鎮",
		"lang": "zh-Hant",
		"lname": "Guanshan Township",
		"zip": "956"
	},
	"data/TW/台東縣/鹿野鄉": {
		"id": "data/TW/台東縣/鹿野鄉",
		"key": "鹿野鄉",
		"lang": "zh-Hant",
		"lname": "Luye Township",
		"zip": "955"
	},
	"data/TW/嘉義市": {
		"id": "data/TW/嘉義市",
		"key": "嘉義市",
		"lang": "zh-Hant",
		"lname": "Chiayi City",
		"zip": "600",
		"isoid": "CYI",
		"sub_keys": "西區~東區",
		"sub_lnames": "West District~East District"
	},
	"data/TW/嘉義市/東區": {
		"id": "data/TW/嘉義市/東區",
		"key": "東區",
		"lang": "zh-Hant",
		"lname": "East District"
	},
	"data/TW/嘉義市/西區": {
		"id": "data/TW/嘉義市/西區",
		"key": "西區",
		"lang": "zh-Hant",
		"lname": "West District"
	},
	"data/TW/嘉義縣": {
		"id": "data/TW/嘉義縣",
		"key": "嘉義縣",
		"lang": "zh-Hant",
		"lname": "Chiayi County",
		"zip": "60[1-9]|6[12]",
		"zipex": "602,625",
		"isoid": "CYQ",
		"sub_keys": "大林鎮~大埔鄉~中埔鄉~六腳鄉~太保市~水上鄉~布袋鎮~民雄鄉~朴子市~竹崎鄉~東石鄉~阿里山鄉~梅山鄉~鹿草鄉~番路鄉~新港鄉~溪口鄉~義竹鄉",
		"sub_lnames": "Dalin Township~Dapu Township~Zhongpu Township~Liujiao Township~Taibao City~Shuishang Township~Budai Township~Minxiong Township~Puzi City~Zhuqi Township~Dongshi Township~Alishan Township~Meishan Township~Lucao Township~Fanlu Township~Xingang Township~Xikou Township~Yizhu Township",
		"sub_zips": "622~607~606~615~612~608~625~621~613~604~614~605~603~611~602~616~623~624"
	},
	"data/TW/嘉義縣/中埔鄉": {
		"id": "data/TW/嘉義縣/中埔鄉",
		"key": "中埔鄉",
		"lang": "zh-Hant",
		"lname": "Zhongpu Township",
		"zip": "606"
	},
	"data/TW/嘉義縣/六腳鄉": {
		"id": "data/TW/嘉義縣/六腳鄉",
		"key": "六腳鄉",
		"lang": "zh-Hant",
		"lname": "Liujiao Township",
		"zip": "615"
	},
	"data/TW/嘉義縣/大埔鄉": {
		"id": "data/TW/嘉義縣/大埔鄉",
		"key": "大埔鄉",
		"lang": "zh-Hant",
		"lname": "Dapu Township",
		"zip": "607"
	},
	"data/TW/嘉義縣/大林鎮": {
		"id": "data/TW/嘉義縣/大林鎮",
		"key": "大林鎮",
		"lang": "zh-Hant",
		"lname": "Dalin Township",
		"zip": "622"
	},
	"data/TW/嘉義縣/太保市": {
		"id": "data/TW/嘉義縣/太保市",
		"key": "太保市",
		"lang": "zh-Hant",
		"lname": "Taibao City",
		"zip": "612"
	},
	"data/TW/嘉義縣/布袋鎮": {
		"id": "data/TW/嘉義縣/布袋鎮",
		"key": "布袋鎮",
		"lang": "zh-Hant",
		"lname": "Budai Township",
		"zip": "625"
	},
	"data/TW/嘉義縣/新港鄉": {
		"id": "data/TW/嘉義縣/新港鄉",
		"key": "新港鄉",
		"lang": "zh-Hant",
		"lname": "Xingang Township",
		"zip": "616"
	},
	"data/TW/嘉義縣/朴子市": {
		"id": "data/TW/嘉義縣/朴子市",
		"key": "朴子市",
		"lang": "zh-Hant",
		"lname": "Puzi City",
		"zip": "613"
	},
	"data/TW/嘉義縣/東石鄉": {
		"id": "data/TW/嘉義縣/東石鄉",
		"key": "東石鄉",
		"lang": "zh-Hant",
		"lname": "Dongshi Township",
		"zip": "614"
	},
	"data/TW/嘉義縣/梅山鄉": {
		"id": "data/TW/嘉義縣/梅山鄉",
		"key": "梅山鄉",
		"lang": "zh-Hant",
		"lname": "Meishan Township",
		"zip": "603"
	},
	"data/TW/嘉義縣/民雄鄉": {
		"id": "data/TW/嘉義縣/民雄鄉",
		"key": "民雄鄉",
		"lang": "zh-Hant",
		"lname": "Minxiong Township",
		"zip": "621"
	},
	"data/TW/嘉義縣/水上鄉": {
		"id": "data/TW/嘉義縣/水上鄉",
		"key": "水上鄉",
		"lang": "zh-Hant",
		"lname": "Shuishang Township",
		"zip": "608"
	},
	"data/TW/嘉義縣/溪口鄉": {
		"id": "data/TW/嘉義縣/溪口鄉",
		"key": "溪口鄉",
		"lang": "zh-Hant",
		"lname": "Xikou Township",
		"zip": "623"
	},
	"data/TW/嘉義縣/番路鄉": {
		"id": "data/TW/嘉義縣/番路鄉",
		"key": "番路鄉",
		"lang": "zh-Hant",
		"lname": "Fanlu Township",
		"zip": "602"
	},
	"data/TW/嘉義縣/竹崎鄉": {
		"id": "data/TW/嘉義縣/竹崎鄉",
		"key": "竹崎鄉",
		"lang": "zh-Hant",
		"lname": "Zhuqi Township",
		"zip": "604"
	},
	"data/TW/嘉義縣/義竹鄉": {
		"id": "data/TW/嘉義縣/義竹鄉",
		"key": "義竹鄉",
		"lang": "zh-Hant",
		"lname": "Yizhu Township",
		"zip": "624"
	},
	"data/TW/嘉義縣/阿里山鄉": {
		"id": "data/TW/嘉義縣/阿里山鄉",
		"key": "阿里山鄉",
		"lang": "zh-Hant",
		"lname": "Alishan Township",
		"zip": "605"
	},
	"data/TW/嘉義縣/鹿草鄉": {
		"id": "data/TW/嘉義縣/鹿草鄉",
		"key": "鹿草鄉",
		"lang": "zh-Hant",
		"lname": "Lucao Township",
		"zip": "611"
	},
	"data/TW/基隆市": {
		"id": "data/TW/基隆市",
		"key": "基隆市",
		"lang": "zh-Hant",
		"lname": "Keelung City",
		"zip": "20[0-6]",
		"zipex": "200,206",
		"isoid": "KEE",
		"sub_keys": "七堵區~中山區~中正區~仁愛區~安樂區~信義區~暖暖區",
		"sub_lnames": "Qidu District~Zhongshan District~Zhongzheng District~Ren'ai District~Anle District~Xinyi District~Nuannuan District",
		"sub_zips": "206~203~202~200~204~201~205"
	},
	"data/TW/基隆市/七堵區": {
		"id": "data/TW/基隆市/七堵區",
		"key": "七堵區",
		"lang": "zh-Hant",
		"lname": "Qidu District",
		"zip": "206"
	},
	"data/TW/基隆市/中山區": {
		"id": "data/TW/基隆市/中山區",
		"key": "中山區",
		"lang": "zh-Hant",
		"lname": "Zhongshan District",
		"zip": "203"
	},
	"data/TW/基隆市/中正區": {
		"id": "data/TW/基隆市/中正區",
		"key": "中正區",
		"lang": "zh-Hant",
		"lname": "Zhongzheng District",
		"zip": "202"
	},
	"data/TW/基隆市/仁愛區": {
		"id": "data/TW/基隆市/仁愛區",
		"key": "仁愛區",
		"lang": "zh-Hant",
		"lname": "Ren'ai District",
		"zip": "200"
	},
	"data/TW/基隆市/信義區": {
		"id": "data/TW/基隆市/信義區",
		"key": "信義區",
		"lang": "zh-Hant",
		"lname": "Xinyi District",
		"zip": "201"
	},
	"data/TW/基隆市/安樂區": {
		"id": "data/TW/基隆市/安樂區",
		"key": "安樂區",
		"lang": "zh-Hant",
		"lname": "Anle District",
		"zip": "204"
	},
	"data/TW/基隆市/暖暖區": {
		"id": "data/TW/基隆市/暖暖區",
		"key": "暖暖區",
		"lang": "zh-Hant",
		"lname": "Nuannuan District",
		"zip": "205"
	},
	"data/TW/宜蘭縣": {
		"id": "data/TW/宜蘭縣",
		"key": "宜蘭縣",
		"lang": "zh-Hant",
		"lname": "Yilan County",
		"zip": "2[67]",
		"zipex": "260,272",
		"isoid": "ILA",
		"sub_keys": "三星鄉~大同鄉~五結鄉~冬山鄉~壯圍鄉~宜蘭市~南澳鄉~員山鄉~頭城鎮~礁溪鄉~羅東鎮~蘇澳鎮",
		"sub_lnames": "Sanxing Township~Datong Township~Wujie Township~Dongshan Township~Zhuangwei Township~Yilan City~Nan'ao Township~Yuanshan Township~Toucheng Township~Jiaoxi Township~Luodong Township~Su'ao Township",
		"sub_zips": "266~267~268~269~263~260~272~264~261~262~265~270"
	},
	"data/TW/宜蘭縣/三星鄉": {
		"id": "data/TW/宜蘭縣/三星鄉",
		"key": "三星鄉",
		"lang": "zh-Hant",
		"lname": "Sanxing Township",
		"zip": "266"
	},
	"data/TW/宜蘭縣/五結鄉": {
		"id": "data/TW/宜蘭縣/五結鄉",
		"key": "五結鄉",
		"lang": "zh-Hant",
		"lname": "Wujie Township",
		"zip": "268"
	},
	"data/TW/宜蘭縣/冬山鄉": {
		"id": "data/TW/宜蘭縣/冬山鄉",
		"key": "冬山鄉",
		"lang": "zh-Hant",
		"lname": "Dongshan Township",
		"zip": "269"
	},
	"data/TW/宜蘭縣/南澳鄉": {
		"id": "data/TW/宜蘭縣/南澳鄉",
		"key": "南澳鄉",
		"lang": "zh-Hant",
		"lname": "Nan'ao Township",
		"zip": "272"
	},
	"data/TW/宜蘭縣/員山鄉": {
		"id": "data/TW/宜蘭縣/員山鄉",
		"key": "員山鄉",
		"lang": "zh-Hant",
		"lname": "Yuanshan Township",
		"zip": "264"
	},
	"data/TW/宜蘭縣/壯圍鄉": {
		"id": "data/TW/宜蘭縣/壯圍鄉",
		"key": "壯圍鄉",
		"lang": "zh-Hant",
		"lname": "Zhuangwei Township",
		"zip": "263"
	},
	"data/TW/宜蘭縣/大同鄉": {
		"id": "data/TW/宜蘭縣/大同鄉",
		"key": "大同鄉",
		"lang": "zh-Hant",
		"lname": "Datong Township",
		"zip": "267"
	},
	"data/TW/宜蘭縣/宜蘭市": {
		"id": "data/TW/宜蘭縣/宜蘭市",
		"key": "宜蘭市",
		"lang": "zh-Hant",
		"lname": "Yilan City",
		"zip": "260"
	},
	"data/TW/宜蘭縣/礁溪鄉": {
		"id": "data/TW/宜蘭縣/礁溪鄉",
		"key": "礁溪鄉",
		"lang": "zh-Hant",
		"lname": "Jiaoxi Township",
		"zip": "262"
	},
	"data/TW/宜蘭縣/羅東鎮": {
		"id": "data/TW/宜蘭縣/羅東鎮",
		"key": "羅東鎮",
		"lang": "zh-Hant",
		"lname": "Luodong Township",
		"zip": "265"
	},
	"data/TW/宜蘭縣/蘇澳鎮": {
		"id": "data/TW/宜蘭縣/蘇澳鎮",
		"key": "蘇澳鎮",
		"lang": "zh-Hant",
		"lname": "Su'ao Township",
		"zip": "270"
	},
	"data/TW/宜蘭縣/頭城鎮": {
		"id": "data/TW/宜蘭縣/頭城鎮",
		"key": "頭城鎮",
		"lang": "zh-Hant",
		"lname": "Toucheng Township",
		"zip": "261"
	},
	"data/TW/屏東縣": {
		"id": "data/TW/屏東縣",
		"key": "屏東縣",
		"lang": "zh-Hant",
		"lname": "Pingtung County",
		"zip": "9[0-4]",
		"zipex": "900,947",
		"isoid": "PIF",
		"sub_keys": "九如鄉~三地門鄉~內埔鄉~竹田鄉~牡丹鄉~車城鄉~里港鄉~佳冬鄉~來義鄉~東港鎮~枋山鄉~枋寮鄉~林邊鄉~長治鄉~南州鄉~屏東市~恆春鎮~春日鄉~崁頂鄉~泰武鄉~琉球鄉~高樹鄉~新埤鄉~新園鄉~獅子鄉~萬丹鄉~萬巒鄉~滿洲鄉~瑪家鄉~潮州鎮~霧台鄉~麟洛鄉~鹽埔鄉",
		"sub_lnames": "Jiuru Township~Sandimen Township~Neipu Township~Zhutian Township~Mudan Township~Checheng Township~Ligang Township~Jiadong Township~Laiyi Township~Donggang Township~Fangshan Township~Fangliao Township~Linbian Township~Changzhi Township~Nanzhou Township~Pingtung City~Hengchun Township~Chunri Township~Kanding Township~Taiwu Township~Liuqiu Township~Gaoshu Township~Xinpi Township~Xinyuan Township~Shizi Township~Wandan Township~Wanluan Township~Manzhou Township~Majia Township~Chaozhou Township~Wutai Township~Linluo Township~Yanpu Township",
		"sub_zips": "904~901~912~911~945~944~905~931~922~928~941~940~927~908~926~900~946~942~924~921~929~906~925~932~943~913~923~947~903~920~902~909~907"
	},
	"data/TW/屏東縣/三地門鄉": {
		"id": "data/TW/屏東縣/三地門鄉",
		"key": "三地門鄉",
		"lang": "zh-Hant",
		"lname": "Sandimen Township",
		"zip": "901"
	},
	"data/TW/屏東縣/九如鄉": {
		"id": "data/TW/屏東縣/九如鄉",
		"key": "九如鄉",
		"lang": "zh-Hant",
		"lname": "Jiuru Township",
		"zip": "904"
	},
	"data/TW/屏東縣/佳冬鄉": {
		"id": "data/TW/屏東縣/佳冬鄉",
		"key": "佳冬鄉",
		"lang": "zh-Hant",
		"lname": "Jiadong Township",
		"zip": "931"
	},
	"data/TW/屏東縣/來義鄉": {
		"id": "data/TW/屏東縣/來義鄉",
		"key": "來義鄉",
		"lang": "zh-Hant",
		"lname": "Laiyi Township",
		"zip": "922"
	},
	"data/TW/屏東縣/內埔鄉": {
		"id": "data/TW/屏東縣/內埔鄉",
		"key": "內埔鄉",
		"lang": "zh-Hant",
		"lname": "Neipu Township",
		"zip": "912"
	},
	"data/TW/屏東縣/南州鄉": {
		"id": "data/TW/屏東縣/南州鄉",
		"key": "南州鄉",
		"lang": "zh-Hant",
		"lname": "Nanzhou Township",
		"zip": "926"
	},
	"data/TW/屏東縣/屏東市": {
		"id": "data/TW/屏東縣/屏東市",
		"key": "屏東市",
		"lang": "zh-Hant",
		"lname": "Pingtung City",
		"zip": "900"
	},
	"data/TW/屏東縣/崁頂鄉": {
		"id": "data/TW/屏東縣/崁頂鄉",
		"key": "崁頂鄉",
		"lang": "zh-Hant",
		"lname": "Kanding Township",
		"zip": "924"
	},
	"data/TW/屏東縣/恆春鎮": {
		"id": "data/TW/屏東縣/恆春鎮",
		"key": "恆春鎮",
		"lang": "zh-Hant",
		"lname": "Hengchun Township",
		"zip": "946"
	},
	"data/TW/屏東縣/新園鄉": {
		"id": "data/TW/屏東縣/新園鄉",
		"key": "新園鄉",
		"lang": "zh-Hant",
		"lname": "Xinyuan Township",
		"zip": "932"
	},
	"data/TW/屏東縣/新埤鄉": {
		"id": "data/TW/屏東縣/新埤鄉",
		"key": "新埤鄉",
		"lang": "zh-Hant",
		"lname": "Xinpi Township",
		"zip": "925"
	},
	"data/TW/屏東縣/春日鄉": {
		"id": "data/TW/屏東縣/春日鄉",
		"key": "春日鄉",
		"lang": "zh-Hant",
		"lname": "Chunri Township",
		"zip": "942"
	},
	"data/TW/屏東縣/東港鎮": {
		"id": "data/TW/屏東縣/東港鎮",
		"key": "東港鎮",
		"lang": "zh-Hant",
		"lname": "Donggang Township",
		"zip": "928"
	},
	"data/TW/屏東縣/枋寮鄉": {
		"id": "data/TW/屏東縣/枋寮鄉",
		"key": "枋寮鄉",
		"lang": "zh-Hant",
		"lname": "Fangliao Township",
		"zip": "940"
	},
	"data/TW/屏東縣/枋山鄉": {
		"id": "data/TW/屏東縣/枋山鄉",
		"key": "枋山鄉",
		"lang": "zh-Hant",
		"lname": "Fangshan Township",
		"zip": "941"
	},
	"data/TW/屏東縣/林邊鄉": {
		"id": "data/TW/屏東縣/林邊鄉",
		"key": "林邊鄉",
		"lang": "zh-Hant",
		"lname": "Linbian Township",
		"zip": "927"
	},
	"data/TW/屏東縣/泰武鄉": {
		"id": "data/TW/屏東縣/泰武鄉",
		"key": "泰武鄉",
		"lang": "zh-Hant",
		"lname": "Taiwu Township",
		"zip": "921"
	},
	"data/TW/屏東縣/滿洲鄉": {
		"id": "data/TW/屏東縣/滿洲鄉",
		"key": "滿洲鄉",
		"lang": "zh-Hant",
		"lname": "Manzhou Township",
		"zip": "947"
	},
	"data/TW/屏東縣/潮州鎮": {
		"id": "data/TW/屏東縣/潮州鎮",
		"key": "潮州鎮",
		"lang": "zh-Hant",
		"lname": "Chaozhou Township",
		"zip": "920"
	},
	"data/TW/屏東縣/牡丹鄉": {
		"id": "data/TW/屏東縣/牡丹鄉",
		"key": "牡丹鄉",
		"lang": "zh-Hant",
		"lname": "Mudan Township",
		"zip": "945"
	},
	"data/TW/屏東縣/獅子鄉": {
		"id": "data/TW/屏東縣/獅子鄉",
		"key": "獅子鄉",
		"lang": "zh-Hant",
		"lname": "Shizi Township",
		"zip": "943"
	},
	"data/TW/屏東縣/琉球鄉": {
		"id": "data/TW/屏東縣/琉球鄉",
		"key": "琉球鄉",
		"lang": "zh-Hant",
		"lname": "Liuqiu Township",
		"zip": "929"
	},
	"data/TW/屏東縣/瑪家鄉": {
		"id": "data/TW/屏東縣/瑪家鄉",
		"key": "瑪家鄉",
		"lang": "zh-Hant",
		"lname": "Majia Township",
		"zip": "903"
	},
	"data/TW/屏東縣/竹田鄉": {
		"id": "data/TW/屏東縣/竹田鄉",
		"key": "竹田鄉",
		"lang": "zh-Hant",
		"lname": "Zhutian Township",
		"zip": "911"
	},
	"data/TW/屏東縣/萬丹鄉": {
		"id": "data/TW/屏東縣/萬丹鄉",
		"key": "萬丹鄉",
		"lang": "zh-Hant",
		"lname": "Wandan Township",
		"zip": "913"
	},
	"data/TW/屏東縣/萬巒鄉": {
		"id": "data/TW/屏東縣/萬巒鄉",
		"key": "萬巒鄉",
		"lang": "zh-Hant",
		"lname": "Wanluan Township",
		"zip": "923"
	},
	"data/TW/屏東縣/車城鄉": {
		"id": "data/TW/屏東縣/車城鄉",
		"key": "車城鄉",
		"lang": "zh-Hant",
		"lname": "Checheng Township",
		"zip": "944"
	},
	"data/TW/屏東縣/里港鄉": {
		"id": "data/TW/屏東縣/里港鄉",
		"key": "里港鄉",
		"lang": "zh-Hant",
		"lname": "Ligang Township",
		"zip": "905"
	},
	"data/TW/屏東縣/長治鄉": {
		"id": "data/TW/屏東縣/長治鄉",
		"key": "長治鄉",
		"lang": "zh-Hant",
		"lname": "Changzhi Township",
		"zip": "908"
	},
	"data/TW/屏東縣/霧台鄉": {
		"id": "data/TW/屏東縣/霧台鄉",
		"key": "霧台鄉",
		"lang": "zh-Hant",
		"lname": "Wutai Township",
		"zip": "902"
	},
	"data/TW/屏東縣/高樹鄉": {
		"id": "data/TW/屏東縣/高樹鄉",
		"key": "高樹鄉",
		"lang": "zh-Hant",
		"lname": "Gaoshu Township",
		"zip": "906"
	},
	"data/TW/屏東縣/鹽埔鄉": {
		"id": "data/TW/屏東縣/鹽埔鄉",
		"key": "鹽埔鄉",
		"lang": "zh-Hant",
		"lname": "Yanpu Township",
		"zip": "907"
	},
	"data/TW/屏東縣/麟洛鄉": {
		"id": "data/TW/屏東縣/麟洛鄉",
		"key": "麟洛鄉",
		"lang": "zh-Hant",
		"lname": "Linluo Township",
		"zip": "909"
	},
	"data/TW/彰化縣": {
		"id": "data/TW/彰化縣",
		"key": "彰化縣",
		"lang": "zh-Hant",
		"lname": "Changhua County",
		"zip": "5[0123]",
		"zipex": "500,530",
		"isoid": "CHA",
		"sub_keys": "二水鄉~二林鎮~大村鄉~大城鄉~北斗鎮~永靖鄉~田中鎮~田尾鄉~竹塘鄉~伸港鄉~秀水鄉~和美鎮~社頭鄉~芬園鄉~花壇鄉~芳苑鄉~員林市~埔心鄉~埔鹽鄉~埤頭鄉~鹿港鎮~溪州鄉~溪湖鎮~彰化市~福興鄉~線西鄉",
		"sub_lnames": "Ershui Township~Erlin Township~Dacun Township~Dacheng Township~Beidou Township~Yongjing Township~Tianzhong Township~Tianwei Township~Zhutang Township~Shengang Township~Xiushui Township~Hemei Township~Shetou Township~Fenyuan Township~Huatan Township~Fangyuan Township~Yuanlin City~Puxin Township~Puyan Township~Pitou Township~Lukang Township~Xizhou Township~Xihu Township~Changhua City~Fuxing Township~Xianxi Township",
		"sub_zips": "530~526~515~527~521~512~520~522~525~509~504~508~511~502~503~528~510~513~516~523~505~524~514~500~506~507"
	},
	"data/TW/彰化縣/二林鎮": {
		"id": "data/TW/彰化縣/二林鎮",
		"key": "二林鎮",
		"lang": "zh-Hant",
		"lname": "Erlin Township",
		"zip": "526"
	},
	"data/TW/彰化縣/二水鄉": {
		"id": "data/TW/彰化縣/二水鄉",
		"key": "二水鄉",
		"lang": "zh-Hant",
		"lname": "Ershui Township",
		"zip": "530"
	},
	"data/TW/彰化縣/伸港鄉": {
		"id": "data/TW/彰化縣/伸港鄉",
		"key": "伸港鄉",
		"lang": "zh-Hant",
		"lname": "Shengang Township",
		"zip": "509"
	},
	"data/TW/彰化縣/北斗鎮": {
		"id": "data/TW/彰化縣/北斗鎮",
		"key": "北斗鎮",
		"lang": "zh-Hant",
		"lname": "Beidou Township",
		"zip": "521"
	},
	"data/TW/彰化縣/和美鎮": {
		"id": "data/TW/彰化縣/和美鎮",
		"key": "和美鎮",
		"lang": "zh-Hant",
		"lname": "Hemei Township",
		"zip": "508"
	},
	"data/TW/彰化縣/員林市": {
		"id": "data/TW/彰化縣/員林市",
		"key": "員林市",
		"lang": "zh-Hant",
		"lname": "Yuanlin City",
		"zip": "510"
	},
	"data/TW/彰化縣/埔心鄉": {
		"id": "data/TW/彰化縣/埔心鄉",
		"key": "埔心鄉",
		"lang": "zh-Hant",
		"lname": "Puxin Township",
		"zip": "513"
	},
	"data/TW/彰化縣/埔鹽鄉": {
		"id": "data/TW/彰化縣/埔鹽鄉",
		"key": "埔鹽鄉",
		"lang": "zh-Hant",
		"lname": "Puyan Township",
		"zip": "516"
	},
	"data/TW/彰化縣/埤頭鄉": {
		"id": "data/TW/彰化縣/埤頭鄉",
		"key": "埤頭鄉",
		"lang": "zh-Hant",
		"lname": "Pitou Township",
		"zip": "523"
	},
	"data/TW/彰化縣/大城鄉": {
		"id": "data/TW/彰化縣/大城鄉",
		"key": "大城鄉",
		"lang": "zh-Hant",
		"lname": "Dacheng Township",
		"zip": "527"
	},
	"data/TW/彰化縣/大村鄉": {
		"id": "data/TW/彰化縣/大村鄉",
		"key": "大村鄉",
		"lang": "zh-Hant",
		"lname": "Dacun Township",
		"zip": "515"
	},
	"data/TW/彰化縣/彰化市": {
		"id": "data/TW/彰化縣/彰化市",
		"key": "彰化市",
		"lang": "zh-Hant",
		"lname": "Changhua City",
		"zip": "500"
	},
	"data/TW/彰化縣/永靖鄉": {
		"id": "data/TW/彰化縣/永靖鄉",
		"key": "永靖鄉",
		"lang": "zh-Hant",
		"lname": "Yongjing Township",
		"zip": "512"
	},
	"data/TW/彰化縣/溪州鄉": {
		"id": "data/TW/彰化縣/溪州鄉",
		"key": "溪州鄉",
		"lang": "zh-Hant",
		"lname": "Xizhou Township",
		"zip": "524"
	},
	"data/TW/彰化縣/溪湖鎮": {
		"id": "data/TW/彰化縣/溪湖鎮",
		"key": "溪湖鎮",
		"lang": "zh-Hant",
		"lname": "Xihu Township",
		"zip": "514"
	},
	"data/TW/彰化縣/田中鎮": {
		"id": "data/TW/彰化縣/田中鎮",
		"key": "田中鎮",
		"lang": "zh-Hant",
		"lname": "Tianzhong Township",
		"zip": "520"
	},
	"data/TW/彰化縣/田尾鄉": {
		"id": "data/TW/彰化縣/田尾鄉",
		"key": "田尾鄉",
		"lang": "zh-Hant",
		"lname": "Tianwei Township",
		"zip": "522"
	},
	"data/TW/彰化縣/社頭鄉": {
		"id": "data/TW/彰化縣/社頭鄉",
		"key": "社頭鄉",
		"lang": "zh-Hant",
		"lname": "Shetou Township",
		"zip": "511"
	},
	"data/TW/彰化縣/福興鄉": {
		"id": "data/TW/彰化縣/福興鄉",
		"key": "福興鄉",
		"lang": "zh-Hant",
		"lname": "Fuxing Township",
		"zip": "506"
	},
	"data/TW/彰化縣/秀水鄉": {
		"id": "data/TW/彰化縣/秀水鄉",
		"key": "秀水鄉",
		"lang": "zh-Hant",
		"lname": "Xiushui Township",
		"zip": "504"
	},
	"data/TW/彰化縣/竹塘鄉": {
		"id": "data/TW/彰化縣/竹塘鄉",
		"key": "竹塘鄉",
		"lang": "zh-Hant",
		"lname": "Zhutang Township",
		"zip": "525"
	},
	"data/TW/彰化縣/線西鄉": {
		"id": "data/TW/彰化縣/線西鄉",
		"key": "線西鄉",
		"lang": "zh-Hant",
		"lname": "Xianxi Township",
		"zip": "507"
	},
	"data/TW/彰化縣/芬園鄉": {
		"id": "data/TW/彰化縣/芬園鄉",
		"key": "芬園鄉",
		"lang": "zh-Hant",
		"lname": "Fenyuan Township",
		"zip": "502"
	},
	"data/TW/彰化縣/花壇鄉": {
		"id": "data/TW/彰化縣/花壇鄉",
		"key": "花壇鄉",
		"lang": "zh-Hant",
		"lname": "Huatan Township",
		"zip": "503"
	},
	"data/TW/彰化縣/芳苑鄉": {
		"id": "data/TW/彰化縣/芳苑鄉",
		"key": "芳苑鄉",
		"lang": "zh-Hant",
		"lname": "Fangyuan Township",
		"zip": "528"
	},
	"data/TW/彰化縣/鹿港鎮": {
		"id": "data/TW/彰化縣/鹿港鎮",
		"key": "鹿港鎮",
		"lang": "zh-Hant",
		"lname": "Lukang Township",
		"zip": "505"
	},
	"data/TW/新北市": {
		"id": "data/TW/新北市",
		"key": "新北市",
		"lang": "zh-Hant",
		"lname": "New Taipei City",
		"zip": "20[78]|2[2345]",
		"zipex": "207,208,220,253",
		"isoid": "NWT",
		"sub_keys": "八里區~三芝區~三重區~三峽區~土城區~中和區~五股區~平溪區~永和區~石門區~石碇區~汐止區~坪林區~板橋區~林口區~金山區~泰山區~烏來區~貢寮區~淡水區~深坑區~新店區~新莊區~瑞芳區~萬里區~樹林區~雙溪區~蘆洲區~鶯歌區",
		"sub_lnames": "Bali District~Sanzhi District~Sanchong District~Sanxia District~Tucheng District~Zhonghe District~Wugu District~Pingxi District~Yonghe District~Shimen District~Shiding District~Xizhi District~Pinglin District~Banqiao District~Linkou District~Jinshan District~Taishan District~Wulai District~Gongliao District~Tamsui District~Shenkeng District~Xindian District~Xinzhuang District~Ruifang District~Wanli District~Shulin District~Shuangxi District~Luzhou District~Yingge District",
		"sub_zips": "249~252~241~237~236~235~248~226~234~253~223~221~232~220~244~208~243~233~228~251~222~231~242~224~207~238~227~247~239"
	},
	"data/TW/新北市/三峽區": {
		"id": "data/TW/新北市/三峽區",
		"key": "三峽區",
		"lang": "zh-Hant",
		"lname": "Sanxia District",
		"zip": "237"
	},
	"data/TW/新北市/三芝區": {
		"id": "data/TW/新北市/三芝區",
		"key": "三芝區",
		"lang": "zh-Hant",
		"lname": "Sanzhi District",
		"zip": "252"
	},
	"data/TW/新北市/三重區": {
		"id": "data/TW/新北市/三重區",
		"key": "三重區",
		"lang": "zh-Hant",
		"lname": "Sanchong District",
		"zip": "241"
	},
	"data/TW/新北市/中和區": {
		"id": "data/TW/新北市/中和區",
		"key": "中和區",
		"lang": "zh-Hant",
		"lname": "Zhonghe District",
		"zip": "235"
	},
	"data/TW/新北市/五股區": {
		"id": "data/TW/新北市/五股區",
		"key": "五股區",
		"lang": "zh-Hant",
		"lname": "Wugu District",
		"zip": "248"
	},
	"data/TW/新北市/八里區": {
		"id": "data/TW/新北市/八里區",
		"key": "八里區",
		"lang": "zh-Hant",
		"lname": "Bali District",
		"zip": "249"
	},
	"data/TW/新北市/土城區": {
		"id": "data/TW/新北市/土城區",
		"key": "土城區",
		"lang": "zh-Hant",
		"lname": "Tucheng District",
		"zip": "236"
	},
	"data/TW/新北市/坪林區": {
		"id": "data/TW/新北市/坪林區",
		"key": "坪林區",
		"lang": "zh-Hant",
		"lname": "Pinglin District",
		"zip": "232"
	},
	"data/TW/新北市/平溪區": {
		"id": "data/TW/新北市/平溪區",
		"key": "平溪區",
		"lang": "zh-Hant",
		"lname": "Pingxi District",
		"zip": "226"
	},
	"data/TW/新北市/新店區": {
		"id": "data/TW/新北市/新店區",
		"key": "新店區",
		"lang": "zh-Hant",
		"lname": "Xindian District",
		"zip": "231"
	},
	"data/TW/新北市/新莊區": {
		"id": "data/TW/新北市/新莊區",
		"key": "新莊區",
		"lang": "zh-Hant",
		"lname": "Xinzhuang District",
		"zip": "242"
	},
	"data/TW/新北市/板橋區": {
		"id": "data/TW/新北市/板橋區",
		"key": "板橋區",
		"lang": "zh-Hant",
		"lname": "Banqiao District",
		"zip": "220"
	},
	"data/TW/新北市/林口區": {
		"id": "data/TW/新北市/林口區",
		"key": "林口區",
		"lang": "zh-Hant",
		"lname": "Linkou District",
		"zip": "244"
	},
	"data/TW/新北市/樹林區": {
		"id": "data/TW/新北市/樹林區",
		"key": "樹林區",
		"lang": "zh-Hant",
		"lname": "Shulin District",
		"zip": "238"
	},
	"data/TW/新北市/永和區": {
		"id": "data/TW/新北市/永和區",
		"key": "永和區",
		"lang": "zh-Hant",
		"lname": "Yonghe District",
		"zip": "234"
	},
	"data/TW/新北市/汐止區": {
		"id": "data/TW/新北市/汐止區",
		"key": "汐止區",
		"lang": "zh-Hant",
		"lname": "Xizhi District",
		"zip": "221"
	},
	"data/TW/新北市/泰山區": {
		"id": "data/TW/新北市/泰山區",
		"key": "泰山區",
		"lang": "zh-Hant",
		"lname": "Taishan District",
		"zip": "243"
	},
	"data/TW/新北市/淡水區": {
		"id": "data/TW/新北市/淡水區",
		"key": "淡水區",
		"lang": "zh-Hant",
		"lname": "Tamsui District",
		"zip": "251"
	},
	"data/TW/新北市/深坑區": {
		"id": "data/TW/新北市/深坑區",
		"key": "深坑區",
		"lang": "zh-Hant",
		"lname": "Shenkeng District",
		"zip": "222"
	},
	"data/TW/新北市/烏來區": {
		"id": "data/TW/新北市/烏來區",
		"key": "烏來區",
		"lang": "zh-Hant",
		"lname": "Wulai District",
		"zip": "233"
	},
	"data/TW/新北市/瑞芳區": {
		"id": "data/TW/新北市/瑞芳區",
		"key": "瑞芳區",
		"lang": "zh-Hant",
		"lname": "Ruifang District",
		"zip": "224"
	},
	"data/TW/新北市/石碇區": {
		"id": "data/TW/新北市/石碇區",
		"key": "石碇區",
		"lang": "zh-Hant",
		"lname": "Shiding District",
		"zip": "223"
	},
	"data/TW/新北市/石門區": {
		"id": "data/TW/新北市/石門區",
		"key": "石門區",
		"lang": "zh-Hant",
		"lname": "Shimen District",
		"zip": "253"
	},
	"data/TW/新北市/萬里區": {
		"id": "data/TW/新北市/萬里區",
		"key": "萬里區",
		"lang": "zh-Hant",
		"lname": "Wanli District",
		"zip": "207"
	},
	"data/TW/新北市/蘆洲區": {
		"id": "data/TW/新北市/蘆洲區",
		"key": "蘆洲區",
		"lang": "zh-Hant",
		"lname": "Luzhou District",
		"zip": "247"
	},
	"data/TW/新北市/貢寮區": {
		"id": "data/TW/新北市/貢寮區",
		"key": "貢寮區",
		"lang": "zh-Hant",
		"lname": "Gongliao District",
		"zip": "228"
	},
	"data/TW/新北市/金山區": {
		"id": "data/TW/新北市/金山區",
		"key": "金山區",
		"lang": "zh-Hant",
		"lname": "Jinshan District",
		"zip": "208"
	},
	"data/TW/新北市/雙溪區": {
		"id": "data/TW/新北市/雙溪區",
		"key": "雙溪區",
		"lang": "zh-Hant",
		"lname": "Shuangxi District",
		"zip": "227"
	},
	"data/TW/新北市/鶯歌區": {
		"id": "data/TW/新北市/鶯歌區",
		"key": "鶯歌區",
		"lang": "zh-Hant",
		"lname": "Yingge District",
		"zip": "239"
	},
	"data/TW/新竹市": {
		"id": "data/TW/新竹市",
		"key": "新竹市",
		"lang": "zh-Hant",
		"lname": "Hsinchu City",
		"zip": "300",
		"isoid": "HSZ",
		"sub_keys": "北區~東區~香山區",
		"sub_lnames": "North District~East District~Xiangshan District"
	},
	"data/TW/新竹市/北區": {
		"id": "data/TW/新竹市/北區",
		"key": "北區",
		"lang": "zh-Hant",
		"lname": "North District"
	},
	"data/TW/新竹市/東區": {
		"id": "data/TW/新竹市/東區",
		"key": "東區",
		"lang": "zh-Hant",
		"lname": "East District"
	},
	"data/TW/新竹市/香山區": {
		"id": "data/TW/新竹市/香山區",
		"key": "香山區",
		"lang": "zh-Hant",
		"lname": "Xiangshan District"
	},
	"data/TW/新竹縣": {
		"id": "data/TW/新竹縣",
		"key": "新竹縣",
		"lang": "zh-Hant",
		"lname": "Hsinchu County",
		"zip": "30[2-8]|31",
		"zipex": "302,315",
		"isoid": "HSQ",
		"sub_keys": "五峰鄉~北埔鄉~尖石鄉~竹北市~竹東鎮~芎林鄉~峨眉鄉~湖口鄉~新埔鎮~新豐鄉~橫山鄉~關西鎮~寶山鄉",
		"sub_lnames": "Wufeng Township~Beipu Township~Jianshi Township~Zhubei City~Zhudong Township~Qionglin Township~Emei Township~Hukou Township~Xinpu Township~Xinfeng Township~Hengshan Township~Guanxi Township~Baoshan Township",
		"sub_zips": "311~314~313~302~310~307~315~303~305~304~312~306~308"
	},
	"data/TW/新竹縣/五峰鄉": {
		"id": "data/TW/新竹縣/五峰鄉",
		"key": "五峰鄉",
		"lang": "zh-Hant",
		"lname": "Wufeng Township",
		"zip": "311"
	},
	"data/TW/新竹縣/北埔鄉": {
		"id": "data/TW/新竹縣/北埔鄉",
		"key": "北埔鄉",
		"lang": "zh-Hant",
		"lname": "Beipu Township",
		"zip": "314"
	},
	"data/TW/新竹縣/寶山鄉": {
		"id": "data/TW/新竹縣/寶山鄉",
		"key": "寶山鄉",
		"lang": "zh-Hant",
		"lname": "Baoshan Township",
		"zip": "308"
	},
	"data/TW/新竹縣/尖石鄉": {
		"id": "data/TW/新竹縣/尖石鄉",
		"key": "尖石鄉",
		"lang": "zh-Hant",
		"lname": "Jianshi Township",
		"zip": "313"
	},
	"data/TW/新竹縣/峨眉鄉": {
		"id": "data/TW/新竹縣/峨眉鄉",
		"key": "峨眉鄉",
		"lang": "zh-Hant",
		"lname": "Emei Township",
		"zip": "315"
	},
	"data/TW/新竹縣/新埔鎮": {
		"id": "data/TW/新竹縣/新埔鎮",
		"key": "新埔鎮",
		"lang": "zh-Hant",
		"lname": "Xinpu Township",
		"zip": "305"
	},
	"data/TW/新竹縣/新豐鄉": {
		"id": "data/TW/新竹縣/新豐鄉",
		"key": "新豐鄉",
		"lang": "zh-Hant",
		"lname": "Xinfeng Township",
		"zip": "304"
	},
	"data/TW/新竹縣/橫山鄉": {
		"id": "data/TW/新竹縣/橫山鄉",
		"key": "橫山鄉",
		"lang": "zh-Hant",
		"lname": "Hengshan Township",
		"zip": "312"
	},
	"data/TW/新竹縣/湖口鄉": {
		"id": "data/TW/新竹縣/湖口鄉",
		"key": "湖口鄉",
		"lang": "zh-Hant",
		"lname": "Hukou Township",
		"zip": "303"
	},
	"data/TW/新竹縣/竹北市": {
		"id": "data/TW/新竹縣/竹北市",
		"key": "竹北市",
		"lang": "zh-Hant",
		"lname": "Zhubei City",
		"zip": "302"
	},
	"data/TW/新竹縣/竹東鎮": {
		"id": "data/TW/新竹縣/竹東鎮",
		"key": "竹東鎮",
		"lang": "zh-Hant",
		"lname": "Zhudong Township",
		"zip": "310"
	},
	"data/TW/新竹縣/芎林鄉": {
		"id": "data/TW/新竹縣/芎林鄉",
		"key": "芎林鄉",
		"lang": "zh-Hant",
		"lname": "Qionglin Township",
		"zip": "307"
	},
	"data/TW/新竹縣/關西鎮": {
		"id": "data/TW/新竹縣/關西鎮",
		"key": "關西鎮",
		"lang": "zh-Hant",
		"lname": "Guanxi Township",
		"zip": "306"
	},
	"data/TW/桃園市": {
		"id": "data/TW/桃園市",
		"key": "桃園市",
		"lang": "zh-Hant",
		"lname": "Taoyuan City",
		"zip": "3[23]",
		"zipex": "320,338",
		"isoid": "TAO",
		"sub_keys": "八德區~大園區~大溪區~中壢區~平鎮區~桃園區~復興區~新屋區~楊梅區~龍潭區~龜山區~蘆竹區~觀音區",
		"sub_lnames": "Bade District~Dayuan District~Daxi District~Zhongli District~Pingzhen District~Taoyuan District~Fuxing District~Xinwu District~Yangmei District~Longtan District~Guishan District~Luzhu District~Guanyin District",
		"sub_zips": "334~337~335~320~324~330~336~327~326~325~333~338~328"
	},
	"data/TW/桃園市/中壢區": {
		"id": "data/TW/桃園市/中壢區",
		"key": "中壢區",
		"lang": "zh-Hant",
		"lname": "Zhongli District",
		"zip": "320"
	},
	"data/TW/桃園市/八德區": {
		"id": "data/TW/桃園市/八德區",
		"key": "八德區",
		"lang": "zh-Hant",
		"lname": "Bade District",
		"zip": "334"
	},
	"data/TW/桃園市/大園區": {
		"id": "data/TW/桃園市/大園區",
		"key": "大園區",
		"lang": "zh-Hant",
		"lname": "Dayuan District",
		"zip": "337"
	},
	"data/TW/桃園市/大溪區": {
		"id": "data/TW/桃園市/大溪區",
		"key": "大溪區",
		"lang": "zh-Hant",
		"lname": "Daxi District",
		"zip": "335"
	},
	"data/TW/桃園市/平鎮區": {
		"id": "data/TW/桃園市/平鎮區",
		"key": "平鎮區",
		"lang": "zh-Hant",
		"lname": "Pingzhen District",
		"zip": "324"
	},
	"data/TW/桃園市/復興區": {
		"id": "data/TW/桃園市/復興區",
		"key": "復興區",
		"lang": "zh-Hant",
		"lname": "Fuxing District",
		"zip": "336"
	},
	"data/TW/桃園市/新屋區": {
		"id": "data/TW/桃園市/新屋區",
		"key": "新屋區",
		"lang": "zh-Hant",
		"lname": "Xinwu District",
		"zip": "327"
	},
	"data/TW/桃園市/桃園區": {
		"id": "data/TW/桃園市/桃園區",
		"key": "桃園區",
		"lang": "zh-Hant",
		"lname": "Taoyuan District",
		"zip": "330"
	},
	"data/TW/桃園市/楊梅區": {
		"id": "data/TW/桃園市/楊梅區",
		"key": "楊梅區",
		"lang": "zh-Hant",
		"lname": "Yangmei District",
		"zip": "326"
	},
	"data/TW/桃園市/蘆竹區": {
		"id": "data/TW/桃園市/蘆竹區",
		"key": "蘆竹區",
		"lang": "zh-Hant",
		"lname": "Luzhu District",
		"zip": "338"
	},
	"data/TW/桃園市/觀音區": {
		"id": "data/TW/桃園市/觀音區",
		"key": "觀音區",
		"lang": "zh-Hant",
		"lname": "Guanyin District",
		"zip": "328"
	},
	"data/TW/桃園市/龍潭區": {
		"id": "data/TW/桃園市/龍潭區",
		"key": "龍潭區",
		"lang": "zh-Hant",
		"lname": "Longtan District",
		"zip": "325"
	},
	"data/TW/桃園市/龜山區": {
		"id": "data/TW/桃園市/龜山區",
		"key": "龜山區",
		"lang": "zh-Hant",
		"lname": "Guishan District",
		"zip": "333"
	},
	"data/TW/澎湖縣": {
		"id": "data/TW/澎湖縣",
		"key": "澎湖縣",
		"lang": "zh-Hant",
		"lname": "Penghu County",
		"zip": "88",
		"zipex": "880,885",
		"isoid": "PEN",
		"sub_keys": "七美鄉~白沙鄉~西嶼鄉~馬公市~望安鄉~湖西鄉",
		"sub_lnames": "Qimei Township~Baisha Township~Xiyu Township~Magong City~Wang'an Township~Huxi Township",
		"sub_zips": "883~884~881~880~882~885"
	},
	"data/TW/澎湖縣/七美鄉": {
		"id": "data/TW/澎湖縣/七美鄉",
		"key": "七美鄉",
		"lang": "zh-Hant",
		"lname": "Qimei Township",
		"zip": "883"
	},
	"data/TW/澎湖縣/望安鄉": {
		"id": "data/TW/澎湖縣/望安鄉",
		"key": "望安鄉",
		"lang": "zh-Hant",
		"lname": "Wang'an Township",
		"zip": "882"
	},
	"data/TW/澎湖縣/湖西鄉": {
		"id": "data/TW/澎湖縣/湖西鄉",
		"key": "湖西鄉",
		"lang": "zh-Hant",
		"lname": "Huxi Township",
		"zip": "885"
	},
	"data/TW/澎湖縣/白沙鄉": {
		"id": "data/TW/澎湖縣/白沙鄉",
		"key": "白沙鄉",
		"lang": "zh-Hant",
		"lname": "Baisha Township",
		"zip": "884"
	},
	"data/TW/澎湖縣/西嶼鄉": {
		"id": "data/TW/澎湖縣/西嶼鄉",
		"key": "西嶼鄉",
		"lang": "zh-Hant",
		"lname": "Xiyu Township",
		"zip": "881"
	},
	"data/TW/澎湖縣/馬公市": {
		"id": "data/TW/澎湖縣/馬公市",
		"key": "馬公市",
		"lang": "zh-Hant",
		"lname": "Magong City",
		"zip": "880"
	},
	"data/TW/花蓮縣": {
		"id": "data/TW/花蓮縣",
		"key": "花蓮縣",
		"lang": "zh-Hant",
		"lname": "Hualien County",
		"zip": "9[78]",
		"zipex": "970,983",
		"isoid": "HUA",
		"sub_keys": "玉里鎮~光復鄉~吉安鄉~秀林鄉~卓溪鄉~花蓮市~富里鄉~新城鄉~瑞穗鄉~萬榮鄉~壽豐鄉~鳳林鎮~豐濱鄉",
		"sub_lnames": "Yuli Township~Guangfu Township~Ji'an Township~Xiulin Township~Zhuoxi Township~Hualien City~Fuli Township~Xincheng Township~Ruisui Township~Wanrong Township~Shoufeng Township~Fenglin Township~Fengbin Township",
		"sub_zips": "981~976~973~972~982~970~983~971~978~979~974~975~977"
	},
	"data/TW/花蓮縣/光復鄉": {
		"id": "data/TW/花蓮縣/光復鄉",
		"key": "光復鄉",
		"lang": "zh-Hant",
		"lname": "Guangfu Township",
		"zip": "976"
	},
	"data/TW/花蓮縣/卓溪鄉": {
		"id": "data/TW/花蓮縣/卓溪鄉",
		"key": "卓溪鄉",
		"lang": "zh-Hant",
		"lname": "Zhuoxi Township",
		"zip": "982"
	},
	"data/TW/花蓮縣/吉安鄉": {
		"id": "data/TW/花蓮縣/吉安鄉",
		"key": "吉安鄉",
		"lang": "zh-Hant",
		"lname": "Ji'an Township",
		"zip": "973"
	},
	"data/TW/花蓮縣/壽豐鄉": {
		"id": "data/TW/花蓮縣/壽豐鄉",
		"key": "壽豐鄉",
		"lang": "zh-Hant",
		"lname": "Shoufeng Township",
		"zip": "974"
	},
	"data/TW/花蓮縣/富里鄉": {
		"id": "data/TW/花蓮縣/富里鄉",
		"key": "富里鄉",
		"lang": "zh-Hant",
		"lname": "Fuli Township",
		"zip": "983"
	},
	"data/TW/花蓮縣/新城鄉": {
		"id": "data/TW/花蓮縣/新城鄉",
		"key": "新城鄉",
		"lang": "zh-Hant",
		"lname": "Xincheng Township",
		"zip": "971"
	},
	"data/TW/花蓮縣/玉里鎮": {
		"id": "data/TW/花蓮縣/玉里鎮",
		"key": "玉里鎮",
		"lang": "zh-Hant",
		"lname": "Yuli Township",
		"zip": "981"
	},
	"data/TW/花蓮縣/瑞穗鄉": {
		"id": "data/TW/花蓮縣/瑞穗鄉",
		"key": "瑞穗鄉",
		"lang": "zh-Hant",
		"lname": "Ruisui Township",
		"zip": "978"
	},
	"data/TW/花蓮縣/秀林鄉": {
		"id": "data/TW/花蓮縣/秀林鄉",
		"key": "秀林鄉",
		"lang": "zh-Hant",
		"lname": "Xiulin Township",
		"zip": "972"
	},
	"data/TW/花蓮縣/花蓮市": {
		"id": "data/TW/花蓮縣/花蓮市",
		"key": "花蓮市",
		"lang": "zh-Hant",
		"lname": "Hualien City",
		"zip": "970"
	},
	"data/TW/花蓮縣/萬榮鄉": {
		"id": "data/TW/花蓮縣/萬榮鄉",
		"key": "萬榮鄉",
		"lang": "zh-Hant",
		"lname": "Wanrong Township",
		"zip": "979"
	},
	"data/TW/花蓮縣/豐濱鄉": {
		"id": "data/TW/花蓮縣/豐濱鄉",
		"key": "豐濱鄉",
		"lang": "zh-Hant",
		"lname": "Fengbin Township",
		"zip": "977"
	},
	"data/TW/花蓮縣/鳳林鎮": {
		"id": "data/TW/花蓮縣/鳳林鎮",
		"key": "鳳林鎮",
		"lang": "zh-Hant",
		"lname": "Fenglin Township",
		"zip": "975"
	},
	"data/TW/苗栗縣": {
		"id": "data/TW/苗栗縣",
		"key": "苗栗縣",
		"lang": "zh-Hant",
		"lname": "Miaoli County",
		"zip": "3[56]",
		"zipex": "350,369",
		"isoid": "MIA",
		"sub_keys": "三義鄉~三灣鄉~大湖鄉~公館鄉~竹南鎮~西湖鄉~卓蘭鎮~南庄鄉~後龍鎮~苑裡鎮~苗栗市~泰安鄉~通霄鎮~造橋鄉~獅潭鄉~銅鑼鄉~頭份市~頭屋鄉",
		"sub_lnames": "Sanyi Township~Sanwan Township~Dahu Township~Gongguan Township~Zhunan Township~Xihu Township~Zhuolan Township~Nanzhuang Township~Houlong Township~Yuanli Township~Miaoli City~Tai'an Township~Tongxiao Township~Zaoqiao Township~Shitan Township~Tongluo Township~Toufen City~Touwu Township",
		"sub_zips": "367~352~364~363~350~368~369~353~356~358~360~365~357~361~354~366~351~362"
	},
	"data/TW/苗栗縣/三灣鄉": {
		"id": "data/TW/苗栗縣/三灣鄉",
		"key": "三灣鄉",
		"lang": "zh-Hant",
		"lname": "Sanwan Township",
		"zip": "352"
	},
	"data/TW/苗栗縣/三義鄉": {
		"id": "data/TW/苗栗縣/三義鄉",
		"key": "三義鄉",
		"lang": "zh-Hant",
		"lname": "Sanyi Township",
		"zip": "367"
	},
	"data/TW/苗栗縣/公館鄉": {
		"id": "data/TW/苗栗縣/公館鄉",
		"key": "公館鄉",
		"lang": "zh-Hant",
		"lname": "Gongguan Township",
		"zip": "363"
	},
	"data/TW/苗栗縣/卓蘭鎮": {
		"id": "data/TW/苗栗縣/卓蘭鎮",
		"key": "卓蘭鎮",
		"lang": "zh-Hant",
		"lname": "Zhuolan Township",
		"zip": "369"
	},
	"data/TW/苗栗縣/南庄鄉": {
		"id": "data/TW/苗栗縣/南庄鄉",
		"key": "南庄鄉",
		"lang": "zh-Hant",
		"lname": "Nanzhuang Township",
		"zip": "353"
	},
	"data/TW/苗栗縣/大湖鄉": {
		"id": "data/TW/苗栗縣/大湖鄉",
		"key": "大湖鄉",
		"lang": "zh-Hant",
		"lname": "Dahu Township",
		"zip": "364"
	},
	"data/TW/苗栗縣/後龍鎮": {
		"id": "data/TW/苗栗縣/後龍鎮",
		"key": "後龍鎮",
		"lang": "zh-Hant",
		"lname": "Houlong Township",
		"zip": "356"
	},
	"data/TW/苗栗縣/泰安鄉": {
		"id": "data/TW/苗栗縣/泰安鄉",
		"key": "泰安鄉",
		"lang": "zh-Hant",
		"lname": "Tai'an Township",
		"zip": "365"
	},
	"data/TW/苗栗縣/獅潭鄉": {
		"id": "data/TW/苗栗縣/獅潭鄉",
		"key": "獅潭鄉",
		"lang": "zh-Hant",
		"lname": "Shitan Township",
		"zip": "354"
	},
	"data/TW/苗栗縣/竹南鎮": {
		"id": "data/TW/苗栗縣/竹南鎮",
		"key": "竹南鎮",
		"lang": "zh-Hant",
		"lname": "Zhunan Township",
		"zip": "350"
	},
	"data/TW/苗栗縣/苑裡鎮": {
		"id": "data/TW/苗栗縣/苑裡鎮",
		"key": "苑裡鎮",
		"lang": "zh-Hant",
		"lname": "Yuanli Township",
		"zip": "358"
	},
	"data/TW/苗栗縣/苗栗市": {
		"id": "data/TW/苗栗縣/苗栗市",
		"key": "苗栗市",
		"lang": "zh-Hant",
		"lname": "Miaoli City",
		"zip": "360"
	},
	"data/TW/苗栗縣/西湖鄉": {
		"id": "data/TW/苗栗縣/西湖鄉",
		"key": "西湖鄉",
		"lang": "zh-Hant",
		"lname": "Xihu Township",
		"zip": "368"
	},
	"data/TW/苗栗縣/通霄鎮": {
		"id": "data/TW/苗栗縣/通霄鎮",
		"key": "通霄鎮",
		"lang": "zh-Hant",
		"lname": "Tongxiao Township",
		"zip": "357"
	},
	"data/TW/苗栗縣/造橋鄉": {
		"id": "data/TW/苗栗縣/造橋鄉",
		"key": "造橋鄉",
		"lang": "zh-Hant",
		"lname": "Zaoqiao Township",
		"zip": "361"
	},
	"data/TW/苗栗縣/銅鑼鄉": {
		"id": "data/TW/苗栗縣/銅鑼鄉",
		"key": "銅鑼鄉",
		"lang": "zh-Hant",
		"lname": "Tongluo Township",
		"zip": "366"
	},
	"data/TW/苗栗縣/頭份市": {
		"id": "data/TW/苗栗縣/頭份市",
		"key": "頭份市",
		"lang": "zh-Hant",
		"lname": "Toufen City",
		"zip": "351"
	},
	"data/TW/苗栗縣/頭屋鄉": {
		"id": "data/TW/苗栗縣/頭屋鄉",
		"key": "頭屋鄉",
		"lang": "zh-Hant",
		"lname": "Touwu Township",
		"zip": "362"
	},
	"data/TW/連江縣": {
		"id": "data/TW/連江縣",
		"key": "連江縣",
		"lang": "zh-Hant",
		"lname": "Lienchiang County",
		"zip": "209|21[012]",
		"zipex": "209,212",
		"sub_keys": "北竿鄉~東引鄉~南竿鄉~莒光鄉",
		"sub_lnames": "Beigan Township~Dongyin Township~Nangan Township~Juguang Township",
		"sub_zips": "210~212~209~211"
	},
	"data/TW/連江縣/北竿鄉": {
		"id": "data/TW/連江縣/北竿鄉",
		"key": "北竿鄉",
		"lang": "zh-Hant",
		"lname": "Beigan Township",
		"zip": "210"
	},
	"data/TW/連江縣/南竿鄉": {
		"id": "data/TW/連江縣/南竿鄉",
		"key": "南竿鄉",
		"lang": "zh-Hant",
		"lname": "Nangan Township",
		"zip": "209"
	},
	"data/TW/連江縣/東引鄉": {
		"id": "data/TW/連江縣/東引鄉",
		"key": "東引鄉",
		"lang": "zh-Hant",
		"lname": "Dongyin Township",
		"zip": "212"
	},
	"data/TW/連江縣/莒光鄉": {
		"id": "data/TW/連江縣/莒光鄉",
		"key": "莒光鄉",
		"lang": "zh-Hant",
		"lname": "Juguang Township",
		"zip": "211"
	},
	"data/TW/金門縣": {
		"id": "data/TW/金門縣",
		"key": "金門縣",
		"lang": "zh-Hant",
		"lname": "Kinmen County",
		"zip": "89",
		"zipex": "890,896",
		"sub_keys": "金沙鎮~金城鎮~金湖鎮~金寧鄉~烈嶼鄉~烏坵鄉",
		"sub_lnames": "Jinsha Township~Jincheng Township~Jinhu Township~Jinning Township~Lieyu Township~Wuqiu Township",
		"sub_zips": "890~893~891~892~894~896"
	},
	"data/TW/金門縣/烈嶼鄉": {
		"id": "data/TW/金門縣/烈嶼鄉",
		"key": "烈嶼鄉",
		"lang": "zh-Hant",
		"lname": "Lieyu Township",
		"zip": "894"
	},
	"data/TW/金門縣/烏坵鄉": {
		"id": "data/TW/金門縣/烏坵鄉",
		"key": "烏坵鄉",
		"lang": "zh-Hant",
		"lname": "Wuqiu Township",
		"zip": "896"
	},
	"data/TW/金門縣/金城鎮": {
		"id": "data/TW/金門縣/金城鎮",
		"key": "金城鎮",
		"lang": "zh-Hant",
		"lname": "Jincheng Township",
		"zip": "893"
	},
	"data/TW/金門縣/金寧鄉": {
		"id": "data/TW/金門縣/金寧鄉",
		"key": "金寧鄉",
		"lang": "zh-Hant",
		"lname": "Jinning Township",
		"zip": "892"
	},
	"data/TW/金門縣/金沙鎮": {
		"id": "data/TW/金門縣/金沙鎮",
		"key": "金沙鎮",
		"lang": "zh-Hant",
		"lname": "Jinsha Township",
		"zip": "890"
	},
	"data/TW/金門縣/金湖鎮": {
		"id": "data/TW/金門縣/金湖鎮",
		"key": "金湖鎮",
		"lang": "zh-Hant",
		"lname": "Jinhu Township",
		"zip": "891"
	},
	"data/TW/雲林縣": {
		"id": "data/TW/雲林縣",
		"key": "雲林縣",
		"lang": "zh-Hant",
		"lname": "Yunlin County",
		"zip": "6[3-5]",
		"zipex": "630,655",
		"isoid": "YUN",
		"sub_keys": "二崙鄉~口湖鄉~土庫鎮~大埤鄉~元長鄉~斗六市~斗南鎮~水林鄉~北港鎮~古坑鄉~台西鄉~四湖鄉~西螺鎮~東勢鄉~林內鄉~虎尾鎮~崙背鄉~麥寮鄉~莿桐鄉~褒忠鄉",
		"sub_lnames": "Erlun Township~Kouhu Township~Tuku Township~Dapi Township~Yuanchang Township~Douliu City~Dounan Township~Shuilin Township~Beigang Township~Gukeng Township~Taixi Township~Sihu Township~Xiluo Township~Dongshi Township~Linnei Township~Huwei Township~Lunbei Township~Mailiao Township~Citong Township~Baozhong Township",
		"sub_zips": "649~653~633~631~655~640~630~652~651~646~636~654~648~635~643~632~637~638~647~634"
	},
	"data/TW/雲林縣/二崙鄉": {
		"id": "data/TW/雲林縣/二崙鄉",
		"key": "二崙鄉",
		"lang": "zh-Hant",
		"lname": "Erlun Township",
		"zip": "649"
	},
	"data/TW/雲林縣/元長鄉": {
		"id": "data/TW/雲林縣/元長鄉",
		"key": "元長鄉",
		"lang": "zh-Hant",
		"lname": "Yuanchang Township",
		"zip": "655"
	},
	"data/TW/雲林縣/北港鎮": {
		"id": "data/TW/雲林縣/北港鎮",
		"key": "北港鎮",
		"lang": "zh-Hant",
		"lname": "Beigang Township",
		"zip": "651"
	},
	"data/TW/雲林縣/口湖鄉": {
		"id": "data/TW/雲林縣/口湖鄉",
		"key": "口湖鄉",
		"lang": "zh-Hant",
		"lname": "Kouhu Township",
		"zip": "653"
	},
	"data/TW/雲林縣/古坑鄉": {
		"id": "data/TW/雲林縣/古坑鄉",
		"key": "古坑鄉",
		"lang": "zh-Hant",
		"lname": "Gukeng Township",
		"zip": "646"
	},
	"data/TW/雲林縣/台西鄉": {
		"id": "data/TW/雲林縣/台西鄉",
		"key": "台西鄉",
		"lang": "zh-Hant",
		"lname": "Taixi Township",
		"zip": "636"
	},
	"data/TW/雲林縣/四湖鄉": {
		"id": "data/TW/雲林縣/四湖鄉",
		"key": "四湖鄉",
		"lang": "zh-Hant",
		"lname": "Sihu Township",
		"zip": "654"
	},
	"data/TW/雲林縣/土庫鎮": {
		"id": "data/TW/雲林縣/土庫鎮",
		"key": "土庫鎮",
		"lang": "zh-Hant",
		"lname": "Tuku Township",
		"zip": "633"
	},
	"data/TW/雲林縣/大埤鄉": {
		"id": "data/TW/雲林縣/大埤鄉",
		"key": "大埤鄉",
		"lang": "zh-Hant",
		"lname": "Dapi Township",
		"zip": "631"
	},
	"data/TW/雲林縣/崙背鄉": {
		"id": "data/TW/雲林縣/崙背鄉",
		"key": "崙背鄉",
		"lang": "zh-Hant",
		"lname": "Lunbei Township",
		"zip": "637"
	},
	"data/TW/雲林縣/斗六市": {
		"id": "data/TW/雲林縣/斗六市",
		"key": "斗六市",
		"lang": "zh-Hant",
		"lname": "Douliu City",
		"zip": "640"
	},
	"data/TW/雲林縣/斗南鎮": {
		"id": "data/TW/雲林縣/斗南鎮",
		"key": "斗南鎮",
		"lang": "zh-Hant",
		"lname": "Dounan Township",
		"zip": "630"
	},
	"data/TW/雲林縣/東勢鄉": {
		"id": "data/TW/雲林縣/東勢鄉",
		"key": "東勢鄉",
		"lang": "zh-Hant",
		"lname": "Dongshi Township",
		"zip": "635"
	},
	"data/TW/雲林縣/林內鄉": {
		"id": "data/TW/雲林縣/林內鄉",
		"key": "林內鄉",
		"lang": "zh-Hant",
		"lname": "Linnei Township",
		"zip": "643"
	},
	"data/TW/雲林縣/水林鄉": {
		"id": "data/TW/雲林縣/水林鄉",
		"key": "水林鄉",
		"lang": "zh-Hant",
		"lname": "Shuilin Township",
		"zip": "652"
	},
	"data/TW/雲林縣/莿桐鄉": {
		"id": "data/TW/雲林縣/莿桐鄉",
		"key": "莿桐鄉",
		"lang": "zh-Hant",
		"lname": "Citong Township",
		"zip": "647"
	},
	"data/TW/雲林縣/虎尾鎮": {
		"id": "data/TW/雲林縣/虎尾鎮",
		"key": "虎尾鎮",
		"lang": "zh-Hant",
		"lname": "Huwei Township",
		"zip": "632"
	},
	"data/TW/雲林縣/褒忠鄉": {
		"id": "data/TW/雲林縣/褒忠鄉",
		"key": "褒忠鄉",
		"lang": "zh-Hant",
		"lname": "Baozhong Township",
		"zip": "634"
	},
	"data/TW/雲林縣/西螺鎮": {
		"id": "data/TW/雲林縣/西螺鎮",
		"key": "西螺鎮",
		"lang": "zh-Hant",
		"lname": "Xiluo Township",
		"zip": "648"
	},
	"data/TW/雲林縣/麥寮鄉": {
		"id": "data/TW/雲林縣/麥寮鄉",
		"key": "麥寮鄉",
		"lang": "zh-Hant",
		"lname": "Mailiao Township",
		"zip": "638"
	},
	"data/TW/高雄市": {
		"id": "data/TW/高雄市",
		"key": "高雄市",
		"lang": "zh-Hant",
		"lname": "Kaohsiung City",
		"zip": "8[02-5]|81[1-579]",
		"zipex": "800,815,817,852",
		"isoid": "KHH",
		"sub_keys": "三民區~大社區~大寮區~大樹區~小港區~仁武區~內門區~六龜區~左營區~永安區~田寮區~甲仙區~杉林區~那瑪夏區~岡山區~東沙島~林園區~阿蓮區~前金區~前鎮區~南沙島~美濃區~苓雅區~茂林區~茄萣區~桃源區~梓官區~鳥松區~湖內區~新興區~楠梓區~路竹區~鼓山區~旗山區~旗津區~鳳山區~橋頭區~燕巢區~彌陀區~鹽埕區",
		"sub_lnames": "Sanmin District~Dashe District~Daliao District~Dashu District~Xiaogang District~Renwu District~Neimen District~Liugui District~Zuoying District~Yong'an District~Tianliao District~Jiaxian District~Shanlin District~Namaxia District~Gangshan District~Dongsha Island~Linyuan District~Alian District~Qianjin District~Qianzhen District~Nansha Island~Meinong District~Lingya District~Maolin District~Jiading District~Taoyuan District~Ziguan District~Niaosong District~Hunei District~Xinxing District~Nanzi District~Luzhu District~Gushan District~Qishan District~Qijin District~Fengshan District~Qiaotou District~Yanchao District~Mituo District~Yancheng District",
		"sub_zips": "807~815~831~840~812~814~845~844~813~828~823~847~846~849~820~817~832~822~801~806~819~843~802~851~852~848~826~833~829~800~811~821~804~842~805~830~825~824~827~803"
	},
	"data/TW/高雄市/三民區": {
		"id": "data/TW/高雄市/三民區",
		"key": "三民區",
		"lang": "zh-Hant",
		"lname": "Sanmin District",
		"zip": "807"
	},
	"data/TW/高雄市/仁武區": {
		"id": "data/TW/高雄市/仁武區",
		"key": "仁武區",
		"lang": "zh-Hant",
		"lname": "Renwu District",
		"zip": "814"
	},
	"data/TW/高雄市/內門區": {
		"id": "data/TW/高雄市/內門區",
		"key": "內門區",
		"lang": "zh-Hant",
		"lname": "Neimen District",
		"zip": "845"
	},
	"data/TW/高雄市/六龜區": {
		"id": "data/TW/高雄市/六龜區",
		"key": "六龜區",
		"lang": "zh-Hant",
		"lname": "Liugui District",
		"zip": "844"
	},
	"data/TW/高雄市/前金區": {
		"id": "data/TW/高雄市/前金區",
		"key": "前金區",
		"lang": "zh-Hant",
		"lname": "Qianjin District",
		"zip": "801"
	},
	"data/TW/高雄市/前鎮區": {
		"id": "data/TW/高雄市/前鎮區",
		"key": "前鎮區",
		"lang": "zh-Hant",
		"lname": "Qianzhen District",
		"zip": "806"
	},
	"data/TW/高雄市/南沙島": {
		"id": "data/TW/高雄市/南沙島",
		"key": "南沙島",
		"lang": "zh-Hant",
		"lname": "Nansha Island",
		"zip": "819"
	},
	"data/TW/高雄市/大寮區": {
		"id": "data/TW/高雄市/大寮區",
		"key": "大寮區",
		"lang": "zh-Hant",
		"lname": "Daliao District",
		"zip": "831"
	},
	"data/TW/高雄市/大樹區": {
		"id": "data/TW/高雄市/大樹區",
		"key": "大樹區",
		"lang": "zh-Hant",
		"lname": "Dashu District",
		"zip": "840"
	},
	"data/TW/高雄市/大社區": {
		"id": "data/TW/高雄市/大社區",
		"key": "大社區",
		"lang": "zh-Hant",
		"lname": "Dashe District",
		"zip": "815"
	},
	"data/TW/高雄市/小港區": {
		"id": "data/TW/高雄市/小港區",
		"key": "小港區",
		"lang": "zh-Hant",
		"lname": "Xiaogang District",
		"zip": "812"
	},
	"data/TW/高雄市/岡山區": {
		"id": "data/TW/高雄市/岡山區",
		"key": "岡山區",
		"lang": "zh-Hant",
		"lname": "Gangshan District",
		"zip": "820"
	},
	"data/TW/高雄市/左營區": {
		"id": "data/TW/高雄市/左營區",
		"key": "左營區",
		"lang": "zh-Hant",
		"lname": "Zuoying District",
		"zip": "813"
	},
	"data/TW/高雄市/彌陀區": {
		"id": "data/TW/高雄市/彌陀區",
		"key": "彌陀區",
		"lang": "zh-Hant",
		"lname": "Mituo District",
		"zip": "827"
	},
	"data/TW/高雄市/新興區": {
		"id": "data/TW/高雄市/新興區",
		"key": "新興區",
		"lang": "zh-Hant",
		"lname": "Xinxing District",
		"zip": "800"
	},
	"data/TW/高雄市/旗山區": {
		"id": "data/TW/高雄市/旗山區",
		"key": "旗山區",
		"lang": "zh-Hant",
		"lname": "Qishan District",
		"zip": "842"
	},
	"data/TW/高雄市/旗津區": {
		"id": "data/TW/高雄市/旗津區",
		"key": "旗津區",
		"lang": "zh-Hant",
		"lname": "Qijin District",
		"zip": "805"
	},
	"data/TW/高雄市/杉林區": {
		"id": "data/TW/高雄市/杉林區",
		"key": "杉林區",
		"lang": "zh-Hant",
		"lname": "Shanlin District",
		"zip": "846"
	},
	"data/TW/高雄市/東沙島": {
		"id": "data/TW/高雄市/東沙島",
		"key": "東沙島",
		"lang": "zh-Hant",
		"lname": "Dongsha Island",
		"zip": "817"
	},
	"data/TW/高雄市/林園區": {
		"id": "data/TW/高雄市/林園區",
		"key": "林園區",
		"lang": "zh-Hant",
		"lname": "Linyuan District",
		"zip": "832"
	},
	"data/TW/高雄市/桃源區": {
		"id": "data/TW/高雄市/桃源區",
		"key": "桃源區",
		"lang": "zh-Hant",
		"lname": "Taoyuan District",
		"zip": "848"
	},
	"data/TW/高雄市/梓官區": {
		"id": "data/TW/高雄市/梓官區",
		"key": "梓官區",
		"lang": "zh-Hant",
		"lname": "Ziguan District",
		"zip": "826"
	},
	"data/TW/高雄市/楠梓區": {
		"id": "data/TW/高雄市/楠梓區",
		"key": "楠梓區",
		"lang": "zh-Hant",
		"lname": "Nanzi District",
		"zip": "811"
	},
	"data/TW/高雄市/橋頭區": {
		"id": "data/TW/高雄市/橋頭區",
		"key": "橋頭區",
		"lang": "zh-Hant",
		"lname": "Qiaotou District",
		"zip": "825"
	},
	"data/TW/高雄市/永安區": {
		"id": "data/TW/高雄市/永安區",
		"key": "永安區",
		"lang": "zh-Hant",
		"lname": "Yong'an District",
		"zip": "828"
	},
	"data/TW/高雄市/湖內區": {
		"id": "data/TW/高雄市/湖內區",
		"key": "湖內區",
		"lang": "zh-Hant",
		"lname": "Hunei District",
		"zip": "829"
	},
	"data/TW/高雄市/燕巢區": {
		"id": "data/TW/高雄市/燕巢區",
		"key": "燕巢區",
		"lang": "zh-Hant",
		"lname": "Yanchao District",
		"zip": "824"
	},
	"data/TW/高雄市/田寮區": {
		"id": "data/TW/高雄市/田寮區",
		"key": "田寮區",
		"lang": "zh-Hant",
		"lname": "Tianliao District",
		"zip": "823"
	},
	"data/TW/高雄市/甲仙區": {
		"id": "data/TW/高雄市/甲仙區",
		"key": "甲仙區",
		"lang": "zh-Hant",
		"lname": "Jiaxian District",
		"zip": "847"
	},
	"data/TW/高雄市/美濃區": {
		"id": "data/TW/高雄市/美濃區",
		"key": "美濃區",
		"lang": "zh-Hant",
		"lname": "Meinong District",
		"zip": "843"
	},
	"data/TW/高雄市/苓雅區": {
		"id": "data/TW/高雄市/苓雅區",
		"key": "苓雅區",
		"lang": "zh-Hant",
		"lname": "Lingya District",
		"zip": "802"
	},
	"data/TW/高雄市/茂林區": {
		"id": "data/TW/高雄市/茂林區",
		"key": "茂林區",
		"lang": "zh-Hant",
		"lname": "Maolin District",
		"zip": "851"
	},
	"data/TW/高雄市/茄萣區": {
		"id": "data/TW/高雄市/茄萣區",
		"key": "茄萣區",
		"lang": "zh-Hant",
		"lname": "Jiading District",
		"zip": "852"
	},
	"data/TW/高雄市/路竹區": {
		"id": "data/TW/高雄市/路竹區",
		"key": "路竹區",
		"lang": "zh-Hant",
		"lname": "Luzhu District",
		"zip": "821"
	},
	"data/TW/高雄市/那瑪夏區": {
		"id": "data/TW/高雄市/那瑪夏區",
		"key": "那瑪夏區",
		"lang": "zh-Hant",
		"lname": "Namaxia District",
		"zip": "849"
	},
	"data/TW/高雄市/阿蓮區": {
		"id": "data/TW/高雄市/阿蓮區",
		"key": "阿蓮區",
		"lang": "zh-Hant",
		"lname": "Alian District",
		"zip": "822"
	},
	"data/TW/高雄市/鳥松區": {
		"id": "data/TW/高雄市/鳥松區",
		"key": "鳥松區",
		"lang": "zh-Hant",
		"lname": "Niaosong District",
		"zip": "833"
	},
	"data/TW/高雄市/鳳山區": {
		"id": "data/TW/高雄市/鳳山區",
		"key": "鳳山區",
		"lang": "zh-Hant",
		"lname": "Fengshan District",
		"zip": "830"
	},
	"data/TW/高雄市/鹽埕區": {
		"id": "data/TW/高雄市/鹽埕區",
		"key": "鹽埕區",
		"lang": "zh-Hant",
		"lname": "Yancheng District",
		"zip": "803"
	},
	"data/TW/高雄市/鼓山區": {
		"id": "data/TW/高雄市/鼓山區",
		"key": "鼓山區",
		"lang": "zh-Hant",
		"lname": "Gushan District",
		"zip": "804"
	}
}