{
	"data/US/NH": {
		"id": "data/US/NH",
		"key": "NH",
		"name": "New Hampshire",
		"lang": "en",
		"zip": "03[0-8]",
		"zipex": "03000,03899",
		"isoid": "NH"
	},
	"data/US/OH": {
		"id": "data/US/OH",
		"key": "OH",
		"name": "Ohio",
		"lang": "en",
		"zip": "4[3-5]",
		"zipex": "43000,45999",
		"isoid": "OH"
	},
	"data/US/PA": {
		"id": "data/US/PA",
		"key": "PA",
		"name": "Pennsylvania",
		"lang": "en",
		"zip": "1[5-8]|19[0-6]",
		"zipex": "15000,19699",
		"isoid": "PA"
	},
	"data/US/ME": {
		"id": "data/US/ME",
		"key": "ME",
		"name": "Maine",
		"lang": "en",
		"zip": "039|04",
		"zipex": "03900,04999",
		"isoid": "ME"
	},
	"data/US/IN": {
		"id": "data/US/IN",
		"key": "IN",
		"name": "Indiana",
		"lang": "en",
		"zip": "4[67]",
		"zipex": "46000,47999",
		"isoid": "IN"
	},
	"data/US/ID": {
		"id": "data/US/ID",
		"key": "ID",
		"name": "Idaho",
		"lang": "en",
		"zip": "83[2-9]",
		"zipex": "83200,83999",
		"isoid": "ID"
	},
	"data/US/AA": {
		"id": "data/US/AA",
		"key": "AA",
		"name": "Armed Forces (AA)",
		"lang": "en",
		"zip": "340",
		"zipex": "34000,34099"
	},
	"data/US/MD": {
		"id": "data/US/MD",
		"key": "MD",
		"name": "Maryland",
		"lang": "en",
		"zip": "20[6-9]|21",
		"zipex": "20600,21999",
		"isoid": "MD"
	},
	"data/US/IA": {
		"id": "data/US/IA",
		"key": "IA",
		"name": "Iowa",
		"lang": "en",
		"zip": "5[0-2]",
		"zipex": "50000,52999",
		"isoid": "IA"
	},
	"data/US/NJ": {
		"id": "data/US/NJ",
		"key": "NJ",
		"name": "New Jersey",
		"lang": "en",
		"zip": "0[78]",
		"zipex": "07000,08999",
		"isoid": "NJ"
	},
	"data/US/AK": {
		"id": "data/US/AK",
		"key": "AK",
		"name": "Alaska",
		"lang": "en",
		"zip": "99[5-9]",
		"zipex": "99500,99999",
		"isoid": "AK"
	},
	"data/US/LA": {
		"id": "data/US/LA",
		"key": "LA",
		"name": "Louisiana",
		"lang": "en",
		"zip": "70|71[0-5]",
		"zipex": "70000,71599",
		"isoid": "LA"
	},
	"data/US/DE": {
		"id": "data/US/DE",
		"key": "DE",
		"name": "Delaware",
		"lang": "en",
		"zip": "19[7-9]",
		"zipex": "19700,19999",
		"isoid": "DE"
	},
	"data/US/AE": {
		"id": "data/US/AE",
		"key": "AE",
		"name": "Armed Forces (AE)",
		"lang": "en",
		"zip": "09",
		"zipex": "09000,09999"
	},
	"data/US/RI": {
		"id": "data/US/RI",
		"key": "RI",
		"name": "Rhode Island",
		"lang": "en",
		"zip": "02[89]",
		"zipex": "02800,02999",
		"isoid": "RI"
	},
	"data/US/NE": {
		"id": "data/US/NE",
		"key": "NE",
		"name": "Nebraska",
		"lang": "en",
		"zip": "6[89]",
		"zipex": "68000,69999",
		"isoid": "NE"
	},
	"data/US/KS": {
		"id": "data/US/KS",
		"key": "KS",
		"name": "Kansas",
		"lang": "en",
		"zip": "6[67]",
		"zipex": "66000,67999",
		"isoid": "KS"
	},
	"data/US/CA": {
		"id": "data/US/CA",
		"key": "CA",
		"name": "California",
		"lang": "en",
		"zip": "9[0-5]|96[01]",
		"zipex": "90000,96199",
		"isoid": "CA"
	},
	"data/US/MI": {
		"id": "data/US/MI",
		"key": "MI",
		"name": "Michigan",
		"lang": "en",
		"zip": "4[89]",
		"zipex": "48000,49999",
		"isoid": "MI"
	},
	"data/US/NV": {
		"id": "data/US/NV",
		"key": "NV",
		"name": "Nevada",
		"lang": "en",
		"zip": "889|89",
		"zipex": "88900,89999",
		"isoid": "NV"
	},
	"data/US/VT": {
		"id": "data/US/VT",
		"key": "VT",
		"name": "Vermont",
		"lang": "en",
		"zip": "05",
		"zipex": "05000,05999",
		"isoid": "VT"
	},
	"data/US/AZ": {
		"id": "data/US/AZ",
		"key": "AZ",
		"name": "Arizona",
		"lang": "en",
		"zip": "8[56]",
		"zipex": "85000,86999",
		"isoid": "AZ"
	},
	"data/US/MH": {
		"id": "data/US/MH",
		"key": "MH",
		"name": "Marshall Islands",
		"lang": "en",
		"zip": "969[67]",
		"zipex": "96960,96979"
	},
	"data/US/OK": {
		"id": "data/US/OK",
		"key": "OK",
		"name": "Oklahoma",
		"lang": "en",
		"zip": "7[34]",
		"zipex": "73000,74999",
		"isoid": "OK"
	},
	"data/US/MN": {
		"id": "data/US/MN",
		"key": "MN",
		"name": "Minnesota",
		"lang": "en",
		"zip": "55|56[0-7]",
		"zipex": "55000,56799",
		"isoid": "MN"
	},
	"data/US/WY": {
		"id": "data/US/WY",
		"key": "WY",
		"name": "Wyoming",
		"lang": "en",
		"zip": "82|83[01]|83414",
		"zipex": "82000,83414",
		"isoid": "WY"
	},
	"data/US": {
		"id": "data/US",
		"key": "US",
		"name": "UNITED STATES",
		"lang": "en",
		"languages": "en",
		"fmt": "%N%n%O%n%A%n%C, %S %Z",
		"require": "ACSZ",
		"upper": "CS",
		"zip": "(\\d{5})(?:[ \\-](\\d{4}))?",
		"zipex": "95014,22162-1010",
		"posturl": "https://tools.usps.com/go/ZipLookupAction!input.action",
		"zip_name_type": "zip",
		"state_name_type": "state",
		"sub_keys": "AL~AK~AS~AZ~AR~AA~AE~AP~CA~CO~CT~DE~DC~FL~GA~GU~HI~ID~IL~IN~IA~KS~KY~LA~ME~MH~MD~MA~MI~FM~MN~MS~MO~MT~NE~NV~NH~NJ~NM~NY~NC~ND~MP~OH~OK~OR~PW~PA~PR~RI~SC~SD~TN~TX~UT~VT~VI~VA~WA~WV~WI~WY",
		"sub_names": "Alabama~Alaska~American Samoa~Arizona~Arkansas~Armed Forces (AA)~Armed Forces (AE)~Armed Forces (AP)~California~Colorado~Connecticut~Delaware~District of Columbia~Florida~Georgia~Guam~Hawaii~Idaho~Illinois~Indiana~Iowa~Kansas~Kentucky~Louisiana~Maine~Marshall Islands~Maryland~Massachusetts~Michigan~Micronesia~Minnesota~Mississippi~Missouri~Montana~Nebraska~Nevada~New Hampshire~New Jersey~New Mexico~New York~North Carolina~North Dakota~Northern Mariana Islands~Ohio~Oklahoma~Oregon~Palau~Pennsylvania~Puerto Rico~Rhode Island~South Carolina~South Dakota~Tennessee~Texas~Utah~Vermont~Virgin Islands~Virginia~Washington~West Virginia~Wisconsin~Wyoming",
		"sub_zips": "3[56]~99[5-9]~96799~8[56]~71[6-9]|72~340~09~96[2-6]~9[0-5]|96[01]~8[01]~06~19[7-9]~20[02-5]|569~3[23]|34[1-9]~3[01]|398|39901~969([1-2]\\d|3[12])~967[0-8]|9679[0-8]|968~83[2-9]~6[0-2]~4[67]~5[0-2]~6[67]~4[01]|42[0-7]~70|71[0-5]~039|04~969[67]~20[6-9]|21~01|02[0-7]|05501|05544~4[89]~9694[1-4]~55|56[0-7]~38[6-9]|39[0-7]~6[3-5]~59~6[89]~889|89~03[0-8]~0[78]~87|88[0-4]~1[0-4]|06390|00501|00544~2[78]~58~9695[0-2]~4[3-5]~7[34]~97~969(39|40)~1[5-8]|19[0-6]~00[679]~02[89]~29~57~37|38[0-5]~7[5-9]|885|73301|73344~84~05~008~201|2[23]|24[0-6]~98|99[0-4]~24[7-9]|2[56]~5[34]~82|83[01]|83414",
		"sub_zipexs": "35000,36999~99500,99999~96799~85000,86999~71600,72999~34000,34099~09000,09999~96200,96699~90000,96199~80000,81999~06000,06999~19700,19999~20000,56999~32000,34999~30000,39901~96910,96932~96700,96899~83200,83999~60000,62999~46000,47999~50000,52999~66000,67999~40000,42799~70000,71599~03900,04999~96960,96979~20600,21999~01000,05544~48000,49999~96941,96944~55000,56799~38600,39799~63000,65999~59000,59999~68000,69999~88900,89999~03000,03899~07000,08999~87000,88499~10000,00544~27000,28999~58000,58999~96950,96952~43000,45999~73000,74999~97000,97999~96940~15000,19699~00600,00999~02800,02999~29000,29999~57000,57999~37000,38599~75000,73344~84000,84999~05000,05999~00800,00899~20100,24699~98000,99499~24700,26999~53000,54999~82000,83414",
		"sub_isoids": "AL~AK~~AZ~AR~~~~CA~CO~CT~DE~DC~FL~GA~~HI~ID~IL~IN~IA~KS~KY~LA~ME~~MD~MA~MI~~MN~MS~MO~MT~NE~NV~NH~NJ~NM~NY~NC~ND~~OH~OK~OR~~PA~~RI~SC~SD~TN~TX~UT~VT~~VA~WA~WV~WI~WY"
	},
	"data/US/GU": {
		"id": "data/US/GU",
		"key": "GU",
		"name": "Guam",
		"lang": "en",
		"zip": "969([1-2]\\d|3[12])",
		"zipex": "96910,96932"
	},
	"data/US/AL": {
		"id": "data/US/AL",
		"key": "AL",
		"name": "Alabama",
		"lang": "en",
		"zip": "3[56]",
		"zipex": "35000,36999",
		"isoid": "AL"
	},
	"data/US/VA": {
		"id": "data/US/VA",
		"key": "VA",
		"name": "Virginia",
		"lang": "en",
		"zip": "201|2[23]|24[0-6]",
		"zipex": "20100,24699",
		"isoid": "VA"
	},
	"data/US/WA": {
		"id": "data/US/WA",
		"key": "WA",
		"name": "Washington",
		"lang": "en",
		"zip": "98|99[0-4]",
		"zipex": "98000,99499",
		"isoid": "WA"
	},
	"data/US/MA": {
		"id": "data/US/MA",
		"key": "MA",
		"name": "Massachusetts",
		"lang": "en",
		"zip": "01|02[0-7]|05501|05544",
		"zipex": "01000,05544",
		"isoid": "MA"
	},
	"data/US/TX": {
		"id": "data/US/TX",
		"key": "TX",
		"name": "Texas",
		"lang": "en",
		"zip": "7[5-9]|885|73301|73344",
		"zipex": "75000,73344",
		"isoid": "TX"
	},
	"data/US/PW": {
		"id": "data/US/PW",
		"key": "PW",
		"name": "Palau",
		"lang": "en",
		"zip": "969(39|40)",
		"zipex": "96940"
	},
	"data/US/NM": {
		"id": "data/US/NM",
		"key": "NM",
		"name": "New Mexico",
		"lang": "en",
		"zip": "87|88[0-4]",
		"zipex": "87000,88499",
		"isoid": "NM"
	},
	"data/US/MP": {
		"id": "data/US/MP",
		"key": "MP",
		"name": "Northern Mariana Islands",
		"lang": "en",
		"zip": "9695[0-2]",
		"zipex": "96950,96952"
	},
	"data/US/UT": {
		"id": "data/US/UT",
		"key": "UT",
		"name": "Utah",
		"lang": "en",
		"zip": "84",
		"zipex": "84000,84999",
		"isoid": "UT"
	},
	"data/US/HI": {
		"id": "data/US/HI",
		"key": "HI",
		"name": "Hawaii",
		"lang": "en",
		"zip": "967[0-8]|9679[0-8]|968",
		"zipex": "96700,96899",
		"isoid": "HI"
	},
	"data/US/SC": {
		"id": "data/US/SC",
		"key": "SC",
		"name": "South Carolina",
		"lang": "en",
		"zip": "29",
		"zipex": "29000,29999",
		"isoid": "SC"
	},
	"data/US/WI": {
		"id": "data/US/WI",
		"key": "WI",
		"name": "Wisconsin",
		"lang": "en",
		"zip": "5[34]",
		"zipex": "53000,54999",
		"isoid": "WI"
	},
	"data/US/PR": {
		"id": "data/US/PR",
		"key": "PR",
		"name": "Puerto Rico",
		"lang": "en",
		"zip": "00[679]",
		"zipex": "00600,00999"
	},
	"data/US/OR": {
		"id": "data/US/OR",
		"key": "OR",
		"name": "Oregon",
		"lang": "en",
		"zip": "97",
		"zipex": "97000,97999",
		"isoid": "OR"
	},
	"data/US/MT": {
		"id": "data/US/MT",
		"key": "MT",
		"name": "Montana",
		"lang": "en",
		"zip": "59",
		"zipex": "59000,59999",
		"isoid": "MT"
	},
	"data/US/AP": {
		"id": "data/US/AP",
		"key": "AP",
		"name": "Armed Forces (AP)",
		"lang": "en",
		"zip": "96[2-6]",
		"zipex": "96200,96699"
	},
	"data/US/AR": {
		"id": "data/US/AR",
		"key": "AR",
		"name": "Arkansas",
		"lang": "en",
		"zip": "71[6-9]|72",
		"zipex": "71600,72999",
		"isoid": "AR"
	},
	"data/US/ND": {
		"id": "data/US/ND",
		"key": "ND",
		"name": "North Dakota",
		"lang": "en",
		"zip": "58",
		"zipex": "58000,58999",
		"isoid": "ND"
	},
	"data/US/CT": {
		"id": "data/US/CT",
		"key": "CT",
		"name": "Connecticut",
		"lang": "en",
		"zip": "06",
		"zipex": "06000,06999",
		"isoid": "CT"
	},
	"data/US/FL": {
		"id": "data/US/FL",
		"key": "FL",
		"name": "Florida",
		"lang": "en",
		"zip": "3[23]|34[1-9]",
		"zipex": "32000,34999",
		"isoid": "FL"
	},
	"data/US/CO": {
		"id": "data/US/CO",
		"key": "CO",
		"name": "Colorado",
		"lang": "en",
		"zip": "8[01]",
		"zipex": "80000,81999",
		"isoid": "CO"
	},
	"data/US/MS": {
		"id": "data/US/MS",
		"key": "MS",
		"name": "Mississippi",
		"lang": "en",
		"zip": "38[6-9]|39[0-7]",
		"zipex": "38600,39799",
		"isoid": "MS"
	},
	"data/US/IL": {
		"id": "data/US/IL",
		"key": "IL",
		"name": "Illinois",
		"lang": "en",
		"zip": "6[0-2]",
		"zipex": "60000,62999",
		"isoid": "IL"
	},
	"data/US/FM": {
		"id": "data/US/FM",
		"key": "FM",
		"name": "Micronesia",
		"lang": "en",
		"zip": "9694[1-4]",
		"zipex": "96941,96944"
	},
	"data/US/VI": {
		"id": "data/US/VI",
		"key": "VI",
		"name": "Virgin Islands",
		"lang": "en",
		"zip": "008",
		"zipex": "00800,00899"
	},
	"data/US/SD": {
		"id": "data/US/SD",
		"key": "SD",
		"name": "South Dakota",
		"lang": "en",
		"zip": "57",
		"zipex": "57000,57999",
		"isoid": "SD"
	},
	"data/US/WV": {
		"id": "data/US/WV",
		"key": "WV",
		"name": "West Virginia",
		"lang": "en",
		"zip": "24[7-9]|2[56]",
		"zipex": "24700,26999",
		"isoid": "WV"
	},
	"data/US/AS": {
		"id": "data/US/AS",
		"key": "AS",
		"name": "American Samoa",
		"lang": "en",
		"zip": "96799",
		"zipex": "96799"
	},
	"data/US/GA": {
		"id": "data/US/GA",
		"key": "GA",
		"name": "Georgia",
		"lang": "en",
		"zip": "3[01]|398|39901",
		"zipex": "30000,39901",
		"isoid": "GA"
	},
	"data/US/NY": {
		"id": "data/US/NY",
		"key": "NY",
		"name": "New York",
		"lang": "en",
		"zip": "1[0-4]|06390|00501|00544",
		"zipex": "10000,00544",
		"isoid": "NY"
	},
	"data/US/NC": {
		"id": "data/US/NC",
		"key": "NC",
		"name": "North Carolina",
		"lang": "en",
		"zip": "2[78]",
		"zipex": "27000,28999",
		"isoid": "NC"
	},
	"data/US/KY": {
		"id": "data/US/KY",
		"key": "KY",
		"name": "Kentucky",
		"lang": "en",
		"zip": "4[01]|42[0-7]",
		"zipex": "40000,42799",
		"isoid": "KY"
	},
	"data/US/DC": {
		"id": "data/US/DC",
		"key": "DC",
		"name": "District of Columbia",
		"lang": "en",
		"zip": "20[02-5]|569",
		"zipex": "20000,56999",
		"isoid": "DC"
	},
	"data/US/TN": {
		"id": "data/US/TN",
		"key": "TN",
		"name": "Tennessee",
		"lang": "en",
		"zip": "37|38[0-5]",
		"zipex": "37000,38599",
		"isoid": "TN"
	},
	"data/US/MO": {
		"id": "data/US/MO",
		"key": "MO",
		"name": "Missouri",
		"lang": "en",
		"zip": "6[3-5]",
		"zipex": "63000,65999",
		"isoid": "MO"
	}
}